<?xml version="1.0" ?>
<gpx xmlns="http://www.topografix.com/GPX/1/1">
 <trk>
  <name>Silesia Ultramarathon 2026 - trasa atest (final)</name>
  <trkseg>
   <trkpt lat="50.2865009" lon="18.97384374"/>
   <trkpt lat="50.28648522" lon="18.97393224"/>
   <trkpt lat="50.28648522" lon="18.97393224"/>
   <trkpt lat="50.28628723" lon="18.97427954"/>
   <trkpt lat="50.28628723" lon="18.97427954"/>
   <trkpt lat="50.2862424" lon="18.97509458"/>
   <trkpt lat="50.2862424" lon="18.97509458"/>
   <trkpt lat="50.28566275" lon="18.9800885"/>
   <trkpt lat="50.28566275" lon="18.9800885"/>
   <trkpt lat="50.28428353" lon="18.98232278"/>
   <trkpt lat="50.28428353" lon="18.98232278"/>
   <trkpt lat="50.28410398" lon="18.98271334"/>
   <trkpt lat="50.28410398" lon="18.98271334"/>
   <trkpt lat="50.28354344" lon="18.98405903"/>
   <trkpt lat="50.28354344" lon="18.98405903"/>
   <trkpt lat="50.28295733" lon="18.98545657"/>
   <trkpt lat="50.28295733" lon="18.98545657"/>
   <trkpt lat="50.2822865" lon="18.98671583"/>
   <trkpt lat="50.2822865" lon="18.98671583"/>
   <trkpt lat="50.28015999" lon="18.99001943"/>
   <trkpt lat="50.28015999" lon="18.99001943"/>
   <trkpt lat="50.28011257" lon="18.99004515"/>
   <trkpt lat="50.28011257" lon="18.99004515"/>
   <trkpt lat="50.28006075" lon="18.99002631"/>
   <trkpt lat="50.28006075" lon="18.99002631"/>
   <trkpt lat="50.27845461" lon="18.98739755"/>
   <trkpt lat="50.27845461" lon="18.98739755"/>
   <trkpt lat="50.27843565" lon="18.98733819"/>
   <trkpt lat="50.27843565" lon="18.98733819"/>
   <trkpt lat="50.27846157" lon="18.98720959"/>
   <trkpt lat="50.27846157" lon="18.98720959"/>
   <trkpt lat="50.27845777" lon="18.98708297"/>
   <trkpt lat="50.27845777" lon="18.98708297"/>
   <trkpt lat="50.27820616" lon="18.9865922"/>
   <trkpt lat="50.27820616" lon="18.9865922"/>
   <trkpt lat="50.27762191" lon="18.98566629"/>
   <trkpt lat="50.27762191" lon="18.98566629"/>
   <trkpt lat="50.2775678" lon="18.98559264"/>
   <trkpt lat="50.2775678" lon="18.98559264"/>
   <trkpt lat="50.27753346" lon="18.9855995"/>
   <trkpt lat="50.27753346" lon="18.9855995"/>
   <trkpt lat="50.2774838" lon="18.98568378"/>
   <trkpt lat="50.2774838" lon="18.98568378"/>
   <trkpt lat="50.27718926" lon="18.98612695"/>
   <trkpt lat="50.27718926" lon="18.98612695"/>
   <trkpt lat="50.27718853" lon="18.98616582"/>
   <trkpt lat="50.27718853" lon="18.98616582"/>
   <trkpt lat="50.2782333" lon="18.98775869"/>
   <trkpt lat="50.2782333" lon="18.98775869"/>
   <trkpt lat="50.279487" lon="18.98971846"/>
   <trkpt lat="50.279487" lon="18.98971846"/>
   <trkpt lat="50.27950877" lon="18.98972172"/>
   <trkpt lat="50.27950877" lon="18.98972172"/>
   <trkpt lat="50.2796431" lon="18.98956654"/>
   <trkpt lat="50.2796431" lon="18.98956654"/>
   <trkpt lat="50.27970538" lon="18.98956544"/>
   <trkpt lat="50.27970538" lon="18.98956544"/>
   <trkpt lat="50.27974709" lon="18.98961796"/>
   <trkpt lat="50.27974709" lon="18.98961796"/>
   <trkpt lat="50.28004792" lon="18.99010893"/>
   <trkpt lat="50.28004792" lon="18.99010893"/>
   <trkpt lat="50.2800439" lon="18.99020967"/>
   <trkpt lat="50.2800439" lon="18.99020967"/>
   <trkpt lat="50.2779345" lon="18.99357108"/>
   <trkpt lat="50.2779345" lon="18.99357108"/>
   <trkpt lat="50.27792891" lon="18.99364555"/>
   <trkpt lat="50.27792891" lon="18.99364555"/>
   <trkpt lat="50.2779513" lon="18.99394558"/>
   <trkpt lat="50.2779513" lon="18.99394558"/>
   <trkpt lat="50.27803318" lon="18.99405947"/>
   <trkpt lat="50.27803318" lon="18.99405947"/>
   <trkpt lat="50.27819752" lon="18.99416282"/>
   <trkpt lat="50.27819752" lon="18.99416282"/>
   <trkpt lat="50.28249501" lon="19.00077509"/>
   <trkpt lat="50.28249501" lon="19.00077509"/>
   <trkpt lat="50.28258119" lon="19.00086446"/>
   <trkpt lat="50.28258119" lon="19.00086446"/>
   <trkpt lat="50.28267255" lon="19.00091034"/>
   <trkpt lat="50.28267255" lon="19.00091034"/>
   <trkpt lat="50.28281647" lon="19.00092798"/>
   <trkpt lat="50.28281647" lon="19.00092798"/>
   <trkpt lat="50.28294924" lon="19.00087761"/>
   <trkpt lat="50.28294924" lon="19.00087761"/>
   <trkpt lat="50.28485646" lon="18.99954231"/>
   <trkpt lat="50.28485646" lon="18.99954231"/>
   <trkpt lat="50.2850557" lon="18.99941869"/>
   <trkpt lat="50.2850557" lon="18.99941869"/>
   <trkpt lat="50.28521272" lon="18.9993657"/>
   <trkpt lat="50.28521272" lon="18.9993657"/>
   <trkpt lat="50.28546215" lon="18.99930274"/>
   <trkpt lat="50.28546215" lon="18.99930274"/>
   <trkpt lat="50.28660503" lon="18.99906381"/>
   <trkpt lat="50.28660503" lon="18.99906381"/>
   <trkpt lat="50.28676844" lon="18.99899613"/>
   <trkpt lat="50.28676844" lon="18.99899613"/>
   <trkpt lat="50.28689151" lon="18.99890871"/>
   <trkpt lat="50.28689151" lon="18.99890871"/>
   <trkpt lat="50.28713001" lon="18.99869234"/>
   <trkpt lat="50.28713001" lon="18.99869234"/>
   <trkpt lat="50.28731708" lon="18.99846253"/>
   <trkpt lat="50.28731708" lon="18.99846253"/>
   <trkpt lat="50.28780987" lon="18.99773532"/>
   <trkpt lat="50.28780987" lon="18.99773532"/>
   <trkpt lat="50.2879024" lon="18.99763773"/>
   <trkpt lat="50.2879024" lon="18.99763773"/>
   <trkpt lat="50.28804409" lon="18.99755032"/>
   <trkpt lat="50.28804409" lon="18.99755032"/>
   <trkpt lat="50.28817557" lon="18.99752477"/>
   <trkpt lat="50.28817557" lon="18.99752477"/>
   <trkpt lat="50.28835697" lon="18.99753385"/>
   <trkpt lat="50.28835697" lon="18.99753385"/>
   <trkpt lat="50.28848902" lon="18.99757236"/>
   <trkpt lat="50.28848902" lon="18.99757236"/>
   <trkpt lat="50.28876947" lon="18.99771359"/>
   <trkpt lat="50.28876947" lon="18.99771359"/>
   <trkpt lat="50.29041255" lon="18.99879106"/>
   <trkpt lat="50.29041255" lon="18.99879106"/>
   <trkpt lat="50.29067712" lon="18.99890425"/>
   <trkpt lat="50.29067712" lon="18.99890425"/>
   <trkpt lat="50.29083279" lon="18.99892466"/>
   <trkpt lat="50.29083279" lon="18.99892466"/>
   <trkpt lat="50.29111425" lon="18.99888674"/>
   <trkpt lat="50.29111425" lon="18.99888674"/>
   <trkpt lat="50.29120954" lon="18.9988681"/>
   <trkpt lat="50.29120954" lon="18.9988681"/>
   <trkpt lat="50.29128259" lon="18.99882949"/>
   <trkpt lat="50.29128259" lon="18.99882949"/>
   <trkpt lat="50.29164046" lon="18.99852561"/>
   <trkpt lat="50.29164046" lon="18.99852561"/>
   <trkpt lat="50.29169384" lon="18.99851653"/>
   <trkpt lat="50.29169384" lon="18.99851653"/>
   <trkpt lat="50.29172982" lon="18.99854014"/>
   <trkpt lat="50.29172982" lon="18.99854014"/>
   <trkpt lat="50.2921665" lon="18.99920099"/>
   <trkpt lat="50.2921665" lon="18.99920099"/>
   <trkpt lat="50.29220516" lon="18.99921947"/>
   <trkpt lat="50.29220516" lon="18.99921947"/>
   <trkpt lat="50.2922545" lon="18.99918885"/>
   <trkpt lat="50.2922545" lon="18.99918885"/>
   <trkpt lat="50.29253587" lon="18.9987345"/>
   <trkpt lat="50.29253587" lon="18.9987345"/>
   <trkpt lat="50.2926596" lon="18.99858302"/>
   <trkpt lat="50.2926596" lon="18.99858302"/>
   <trkpt lat="50.29278607" lon="18.99849567"/>
   <trkpt lat="50.29278607" lon="18.99849567"/>
   <trkpt lat="50.29293048" lon="18.99842981"/>
   <trkpt lat="50.29293048" lon="18.99842981"/>
   <trkpt lat="50.29403262" lon="18.99823176"/>
   <trkpt lat="50.29403262" lon="18.99823176"/>
   <trkpt lat="50.29496474" lon="18.99800026"/>
   <trkpt lat="50.29496474" lon="18.99800026"/>
   <trkpt lat="50.29505268" lon="18.99792999"/>
   <trkpt lat="50.29505268" lon="18.99792999"/>
   <trkpt lat="50.29509344" lon="18.99785807"/>
   <trkpt lat="50.29509344" lon="18.99785807"/>
   <trkpt lat="50.29513291" lon="18.99773586"/>
   <trkpt lat="50.29513291" lon="18.99773586"/>
   <trkpt lat="50.29517366" lon="18.99725103"/>
   <trkpt lat="50.29517366" lon="18.99725103"/>
   <trkpt lat="50.29520136" lon="18.99683934"/>
   <trkpt lat="50.29520136" lon="18.99683934"/>
   <trkpt lat="50.29520522" lon="18.9966369"/>
   <trkpt lat="50.29520522" lon="18.9966369"/>
   <trkpt lat="50.29483593" lon="18.99455561"/>
   <trkpt lat="50.29483593" lon="18.99455561"/>
   <trkpt lat="50.29485616" lon="18.99415748"/>
   <trkpt lat="50.29485616" lon="18.99415748"/>
   <trkpt lat="50.29500913" lon="18.99333305"/>
   <trkpt lat="50.29500913" lon="18.99333305"/>
   <trkpt lat="50.29516644" lon="18.99017594"/>
   <trkpt lat="50.29516644" lon="18.99017594"/>
   <trkpt lat="50.29520676" lon="18.98984355"/>
   <trkpt lat="50.29520676" lon="18.98984355"/>
   <trkpt lat="50.2953075" lon="18.98944597"/>
   <trkpt lat="50.2953075" lon="18.98944597"/>
   <trkpt lat="50.29540506" lon="18.98922655"/>
   <trkpt lat="50.29540506" lon="18.98922655"/>
   <trkpt lat="50.29556358" lon="18.98892498"/>
   <trkpt lat="50.29556358" lon="18.98892498"/>
   <trkpt lat="50.29692173" lon="18.9871295"/>
   <trkpt lat="50.29692173" lon="18.9871295"/>
   <trkpt lat="50.29708494" lon="18.98685647"/>
   <trkpt lat="50.29708494" lon="18.98685647"/>
   <trkpt lat="50.29721322" lon="18.98657558"/>
   <trkpt lat="50.29721322" lon="18.98657558"/>
   <trkpt lat="50.29728732" lon="18.98615101"/>
   <trkpt lat="50.29728732" lon="18.98615101"/>
   <trkpt lat="50.29729811" lon="18.98575504"/>
   <trkpt lat="50.29729811" lon="18.98575504"/>
   <trkpt lat="50.29690833" lon="18.98295183"/>
   <trkpt lat="50.29690833" lon="18.98295183"/>
   <trkpt lat="50.29687661" lon="18.98291097"/>
   <trkpt lat="50.29687661" lon="18.98291097"/>
   <trkpt lat="50.29680918" lon="18.98290718"/>
   <trkpt lat="50.29680918" lon="18.98290718"/>
   <trkpt lat="50.29618735" lon="18.98339101"/>
   <trkpt lat="50.29618735" lon="18.98339101"/>
   <trkpt lat="50.2958411" lon="18.9836289"/>
   <trkpt lat="50.2958411" lon="18.9836289"/>
   <trkpt lat="50.29557359" lon="18.98367299"/>
   <trkpt lat="50.29557359" lon="18.98367299"/>
   <trkpt lat="50.29534568" lon="18.9836171"/>
   <trkpt lat="50.29534568" lon="18.9836171"/>
   <trkpt lat="50.29107243" lon="18.98095533"/>
   <trkpt lat="50.29107243" lon="18.98095533"/>
   <trkpt lat="50.29077826" lon="18.97559505"/>
   <trkpt lat="50.29077826" lon="18.97559505"/>
   <trkpt lat="50.29077196" lon="18.97552768"/>
   <trkpt lat="50.29077196" lon="18.97552768"/>
   <trkpt lat="50.29072996" lon="18.97553589"/>
   <trkpt lat="50.29072996" lon="18.97553589"/>
   <trkpt lat="50.29070674" lon="18.97560442"/>
   <trkpt lat="50.29070674" lon="18.97560442"/>
   <trkpt lat="50.29095299" lon="18.98075858"/>
   <trkpt lat="50.29095299" lon="18.98075858"/>
   <trkpt lat="50.29093267" lon="18.98083173"/>
   <trkpt lat="50.29093267" lon="18.98083173"/>
   <trkpt lat="50.28860452" lon="18.98118979"/>
   <trkpt lat="50.28860452" lon="18.98118979"/>
   <trkpt lat="50.28825461" lon="18.98125429"/>
   <trkpt lat="50.28825461" lon="18.98125429"/>
   <trkpt lat="50.28781481" lon="18.98143867"/>
   <trkpt lat="50.28781481" lon="18.98143867"/>
   <trkpt lat="50.28760175" lon="18.98153234"/>
   <trkpt lat="50.28760175" lon="18.98153234"/>
   <trkpt lat="50.28735138" lon="18.98168982"/>
   <trkpt lat="50.28735138" lon="18.98168982"/>
   <trkpt lat="50.28707689" lon="18.98193602"/>
   <trkpt lat="50.28707689" lon="18.98193602"/>
   <trkpt lat="50.28671717" lon="18.98241409"/>
   <trkpt lat="50.28671717" lon="18.98241409"/>
   <trkpt lat="50.28665867" lon="18.98248978"/>
   <trkpt lat="50.28665867" lon="18.98248978"/>
   <trkpt lat="50.28661108" lon="18.9825081"/>
   <trkpt lat="50.28661108" lon="18.9825081"/>
   <trkpt lat="50.28656506" lon="18.98245072"/>
   <trkpt lat="50.28656506" lon="18.98245072"/>
   <trkpt lat="50.28595598" lon="18.98092145"/>
   <trkpt lat="50.28595598" lon="18.98092145"/>
   <trkpt lat="50.28587075" lon="18.98074067"/>
   <trkpt lat="50.28587075" lon="18.98074067"/>
   <trkpt lat="50.2856287" lon="18.98036192"/>
   <trkpt lat="50.2856287" lon="18.98036192"/>
   <trkpt lat="50.28559394" lon="18.98033793"/>
   <trkpt lat="50.28559394" lon="18.98033793"/>
   <trkpt lat="50.28554807" lon="18.98034257"/>
   <trkpt lat="50.28554807" lon="18.98034257"/>
   <trkpt lat="50.28428625" lon="18.98233005"/>
   <trkpt lat="50.28428625" lon="18.98233005"/>
   <trkpt lat="50.28410833" lon="18.98271785"/>
   <trkpt lat="50.28410833" lon="18.98271785"/>
   <trkpt lat="50.28354532" lon="18.98406824"/>
   <trkpt lat="50.28354532" lon="18.98406824"/>
   <trkpt lat="50.28297235" lon="18.9854458"/>
   <trkpt lat="50.28297235" lon="18.9854458"/>
   <trkpt lat="50.28229135" lon="18.98672167"/>
   <trkpt lat="50.28229135" lon="18.98672167"/>
   <trkpt lat="50.2779429" lon="18.99358532"/>
   <trkpt lat="50.2779429" lon="18.99358532"/>
   <trkpt lat="50.2779394" lon="18.99364445"/>
   <trkpt lat="50.2779394" lon="18.99364445"/>
   <trkpt lat="50.2779632" lon="18.99393901"/>
   <trkpt lat="50.2779632" lon="18.99393901"/>
   <trkpt lat="50.27804367" lon="18.99404304"/>
   <trkpt lat="50.27804367" lon="18.99404304"/>
   <trkpt lat="50.27818506" lon="18.9941817"/>
   <trkpt lat="50.27818506" lon="18.9941817"/>
   <trkpt lat="50.27579475" lon="18.9980047"/>
   <trkpt lat="50.27579475" lon="18.9980047"/>
   <trkpt lat="50.27580522" lon="18.99809825"/>
   <trkpt lat="50.27580522" lon="18.99809825"/>
   <trkpt lat="50.2787644" lon="19.002925"/>
   <trkpt lat="50.2787644" lon="19.002925"/>
   <trkpt lat="50.27878004" lon="19.00298092"/>
   <trkpt lat="50.27878004" lon="19.00298092"/>
   <trkpt lat="50.27877687" lon="19.00304693"/>
   <trkpt lat="50.27877687" lon="19.00304693"/>
   <trkpt lat="50.27806249" lon="19.00534956"/>
   <trkpt lat="50.27806249" lon="19.00534956"/>
   <trkpt lat="50.27793452" lon="19.00579045"/>
   <trkpt lat="50.27793452" lon="19.00579045"/>
   <trkpt lat="50.27792529" lon="19.00600987"/>
   <trkpt lat="50.27792529" lon="19.00600987"/>
   <trkpt lat="50.2779952" lon="19.00838511"/>
   <trkpt lat="50.2779952" lon="19.00838511"/>
   <trkpt lat="50.27797131" lon="19.00846718"/>
   <trkpt lat="50.27797131" lon="19.00846718"/>
   <trkpt lat="50.27792149" lon="19.00850616"/>
   <trkpt lat="50.27792149" lon="19.00850616"/>
   <trkpt lat="50.2735689" lon="19.0083939"/>
   <trkpt lat="50.2735689" lon="19.0083939"/>
   <trkpt lat="50.27325558" lon="19.00843883"/>
   <trkpt lat="50.27325558" lon="19.00843883"/>
   <trkpt lat="50.27131003" lon="19.00904861"/>
   <trkpt lat="50.27131003" lon="19.00904861"/>
   <trkpt lat="50.27056773" lon="19.00923356"/>
   <trkpt lat="50.27056773" lon="19.00923356"/>
   <trkpt lat="50.27044776" lon="19.00925265"/>
   <trkpt lat="50.27044776" lon="19.00925265"/>
   <trkpt lat="50.27023702" lon="19.00923986"/>
   <trkpt lat="50.27023702" lon="19.00923986"/>
   <trkpt lat="50.2697976" lon="19.0091246"/>
   <trkpt lat="50.2697976" lon="19.0091246"/>
   <trkpt lat="50.26903273" lon="19.00859103"/>
   <trkpt lat="50.26903273" lon="19.00859103"/>
   <trkpt lat="50.2683829" lon="19.0081832"/>
   <trkpt lat="50.2683829" lon="19.0081832"/>
   <trkpt lat="50.26832592" lon="19.00817731"/>
   <trkpt lat="50.26832592" lon="19.00817731"/>
   <trkpt lat="50.26827401" lon="19.00821222"/>
   <trkpt lat="50.26827401" lon="19.00821222"/>
   <trkpt lat="50.26824423" lon="19.00827744"/>
   <trkpt lat="50.26824423" lon="19.00827744"/>
   <trkpt lat="50.26792732" lon="19.00950901"/>
   <trkpt lat="50.26792732" lon="19.00950901"/>
   <trkpt lat="50.26760037" lon="19.01078818"/>
   <trkpt lat="50.26760037" lon="19.01078818"/>
   <trkpt lat="50.26738099" lon="19.01171879"/>
   <trkpt lat="50.26738099" lon="19.01171879"/>
   <trkpt lat="50.2648032" lon="19.0224035"/>
   <trkpt lat="50.2648032" lon="19.0224035"/>
   <trkpt lat="50.26479328" lon="19.0225782"/>
   <trkpt lat="50.26479328" lon="19.0225782"/>
   <trkpt lat="50.26484891" lon="19.02353898"/>
   <trkpt lat="50.26484891" lon="19.02353898"/>
   <trkpt lat="50.26483159" lon="19.0237744"/>
   <trkpt lat="50.26483159" lon="19.0237744"/>
   <trkpt lat="50.26473856" lon="19.02403977"/>
   <trkpt lat="50.26473856" lon="19.02403977"/>
   <trkpt lat="50.26432084" lon="19.02465043"/>
   <trkpt lat="50.26432084" lon="19.02465043"/>
   <trkpt lat="50.26427373" lon="19.02483977"/>
   <trkpt lat="50.26427373" lon="19.02483977"/>
   <trkpt lat="50.2630403" lon="19.0300021"/>
   <trkpt lat="50.2630403" lon="19.0300021"/>
   <trkpt lat="50.26294683" lon="19.03044686"/>
   <trkpt lat="50.26294683" lon="19.03044686"/>
   <trkpt lat="50.26288572" lon="19.03080498"/>
   <trkpt lat="50.26288572" lon="19.03080498"/>
   <trkpt lat="50.262819" lon="19.03136403"/>
   <trkpt lat="50.262819" lon="19.03136403"/>
   <trkpt lat="50.26262609" lon="19.03385805"/>
   <trkpt lat="50.26262609" lon="19.03385805"/>
   <trkpt lat="50.2624668" lon="19.03529483"/>
   <trkpt lat="50.2624668" lon="19.03529483"/>
   <trkpt lat="50.26241937" lon="19.03530053"/>
   <trkpt lat="50.26241937" lon="19.03530053"/>
   <trkpt lat="50.26154778" lon="19.03510219"/>
   <trkpt lat="50.26154778" lon="19.03510219"/>
   <trkpt lat="50.26122287" lon="19.03505939"/>
   <trkpt lat="50.26122287" lon="19.03505939"/>
   <trkpt lat="50.26084386" lon="19.0350757"/>
   <trkpt lat="50.26084386" lon="19.0350757"/>
   <trkpt lat="50.26049959" lon="19.03515234"/>
   <trkpt lat="50.26049959" lon="19.03515234"/>
   <trkpt lat="50.25896213" lon="19.03584982"/>
   <trkpt lat="50.25896213" lon="19.03584982"/>
   <trkpt lat="50.25867614" lon="19.03595413"/>
   <trkpt lat="50.25867614" lon="19.03595413"/>
   <trkpt lat="50.25844206" lon="19.03597723"/>
   <trkpt lat="50.25844206" lon="19.03597723"/>
   <trkpt lat="50.25768844" lon="19.0359624"/>
   <trkpt lat="50.25768844" lon="19.0359624"/>
   <trkpt lat="50.25761739" lon="19.03588397"/>
   <trkpt lat="50.25761739" lon="19.03588397"/>
   <trkpt lat="50.25729406" lon="19.03581081"/>
   <trkpt lat="50.25729406" lon="19.03581081"/>
   <trkpt lat="50.2551868" lon="19.0350607"/>
   <trkpt lat="50.2551868" lon="19.0350607"/>
   <trkpt lat="50.2532482" lon="19.0342618"/>
   <trkpt lat="50.2532482" lon="19.0342618"/>
   <trkpt lat="50.2522949" lon="19.03353052"/>
   <trkpt lat="50.2522949" lon="19.03353052"/>
   <trkpt lat="50.2518639" lon="19.03334285"/>
   <trkpt lat="50.2518639" lon="19.03334285"/>
   <trkpt lat="50.2505566" lon="19.0329447"/>
   <trkpt lat="50.2505566" lon="19.0329447"/>
   <trkpt lat="50.25027979" lon="19.03276938"/>
   <trkpt lat="50.25027979" lon="19.03276938"/>
   <trkpt lat="50.24984734" lon="19.03235575"/>
   <trkpt lat="50.24984734" lon="19.03235575"/>
   <trkpt lat="50.24972571" lon="19.03232103"/>
   <trkpt lat="50.24972571" lon="19.03232103"/>
   <trkpt lat="50.24960408" lon="19.03241161"/>
   <trkpt lat="50.24960408" lon="19.03241161"/>
   <trkpt lat="50.24921795" lon="19.03310603"/>
   <trkpt lat="50.24921795" lon="19.03310603"/>
   <trkpt lat="50.24681742" lon="19.03682589"/>
   <trkpt lat="50.24681742" lon="19.03682589"/>
   <trkpt lat="50.2464337" lon="19.03756406"/>
   <trkpt lat="50.2464337" lon="19.03756406"/>
   <trkpt lat="50.24630333" lon="19.03795196"/>
   <trkpt lat="50.24630333" lon="19.03795196"/>
   <trkpt lat="50.24616721" lon="19.03860143"/>
   <trkpt lat="50.24616721" lon="19.03860143"/>
   <trkpt lat="50.24596972" lon="19.03985481"/>
   <trkpt lat="50.24596972" lon="19.03985481"/>
   <trkpt lat="50.24592751" lon="19.04004025"/>
   <trkpt lat="50.24592751" lon="19.04004025"/>
   <trkpt lat="50.24588953" lon="19.0401081"/>
   <trkpt lat="50.24588953" lon="19.0401081"/>
   <trkpt lat="50.24580623" lon="19.04016365"/>
   <trkpt lat="50.24580623" lon="19.04016365"/>
   <trkpt lat="50.24566505" lon="19.04016812"/>
   <trkpt lat="50.24566505" lon="19.04016812"/>
   <trkpt lat="50.24378927" lon="19.03984771"/>
   <trkpt lat="50.24378927" lon="19.03984771"/>
   <trkpt lat="50.24260286" lon="19.03974753"/>
   <trkpt lat="50.24260286" lon="19.03974753"/>
   <trkpt lat="50.24254231" lon="19.03978713"/>
   <trkpt lat="50.24254231" lon="19.03978713"/>
   <trkpt lat="50.2425204" lon="19.0398515"/>
   <trkpt lat="50.24251" lon="19.03985"/>
   <trkpt lat="50.24286306" lon="19.04248792"/>
   <trkpt lat="50.24286306" lon="19.04248792"/>
   <trkpt lat="50.24283994" lon="19.04259293"/>
   <trkpt lat="50.24283994" lon="19.04259293"/>
   <trkpt lat="50.24276507" lon="19.0426222"/>
   <trkpt lat="50.24276507" lon="19.0426222"/>
   <trkpt lat="50.24260433" lon="19.04265663"/>
   <trkpt lat="50.24260433" lon="19.04265663"/>
   <trkpt lat="50.24241827" lon="19.04267901"/>
   <trkpt lat="50.24241827" lon="19.04267901"/>
   <trkpt lat="50.24226" lon="19.04233"/>
   <trkpt lat="50.24226" lon="19.04233"/>
   <trkpt lat="50.24187965" lon="19.04149828"/>
   <trkpt lat="50.24187965" lon="19.04149828"/>
   <trkpt lat="50.24181733" lon="19.04145123"/>
   <trkpt lat="50.24181733" lon="19.04145123"/>
   <trkpt lat="50.24174583" lon="19.0414461"/>
   <trkpt lat="50.24174583" lon="19.0414461"/>
   <trkpt lat="50.23781914" lon="19.04284209"/>
   <trkpt lat="50.23781914" lon="19.04284209"/>
   <trkpt lat="50.23766461" lon="19.04284076"/>
   <trkpt lat="50.23766461" lon="19.04284076"/>
   <trkpt lat="50.2372423" lon="19.0427209"/>
   <trkpt lat="50.2372423" lon="19.0427209"/>
   <trkpt lat="50.23702855" lon="19.04263653"/>
   <trkpt lat="50.23702855" lon="19.04263653"/>
   <trkpt lat="50.23673399" lon="19.04247101"/>
   <trkpt lat="50.23673399" lon="19.04247101"/>
   <trkpt lat="50.23630482" lon="19.04187864"/>
   <trkpt lat="50.23630482" lon="19.04187864"/>
   <trkpt lat="50.2359604" lon="19.0412772"/>
   <trkpt lat="50.2359604" lon="19.0412772"/>
   <trkpt lat="50.23582886" lon="19.04085167"/>
   <trkpt lat="50.23582886" lon="19.04085167"/>
   <trkpt lat="50.23468866" lon="19.03315399"/>
   <trkpt lat="50.23468866" lon="19.03315399"/>
   <trkpt lat="50.2341477" lon="19.03046717"/>
   <trkpt lat="50.2341477" lon="19.03046717"/>
   <trkpt lat="50.23388868" lon="19.02871036"/>
   <trkpt lat="50.23388868" lon="19.02871036"/>
   <trkpt lat="50.23383486" lon="19.02772786"/>
   <trkpt lat="50.23383486" lon="19.02772786"/>
   <trkpt lat="50.23381666" lon="19.02763967"/>
   <trkpt lat="50.23381666" lon="19.02763967"/>
   <trkpt lat="50.2337184" lon="19.02748464"/>
   <trkpt lat="50.2337184" lon="19.02748464"/>
   <trkpt lat="50.23370721" lon="19.02742846"/>
   <trkpt lat="50.23370721" lon="19.02742846"/>
   <trkpt lat="50.23401697" lon="19.02624001"/>
   <trkpt lat="50.23401697" lon="19.02624001"/>
   <trkpt lat="50.23399756" lon="19.02622483"/>
   <trkpt lat="50.23399756" lon="19.02622483"/>
   <trkpt lat="50.23315811" lon="19.02934622"/>
   <trkpt lat="50.23315811" lon="19.02934622"/>
   <trkpt lat="50.2330745" lon="19.0299684"/>
   <trkpt lat="50.2330745" lon="19.0299684"/>
   <trkpt lat="50.23306281" lon="19.03302172"/>
   <trkpt lat="50.23306281" lon="19.03302172"/>
   <trkpt lat="50.2330545" lon="19.03610917"/>
   <trkpt lat="50.2330545" lon="19.03610917"/>
   <trkpt lat="50.23308318" lon="19.03647205"/>
   <trkpt lat="50.23308318" lon="19.03647205"/>
   <trkpt lat="50.23314351" lon="19.03685357"/>
   <trkpt lat="50.23314351" lon="19.03685357"/>
   <trkpt lat="50.23336318" lon="19.03763668"/>
   <trkpt lat="50.23336318" lon="19.03763668"/>
   <trkpt lat="50.23400754" lon="19.03985377"/>
   <trkpt lat="50.23400754" lon="19.03985377"/>
   <trkpt lat="50.23507938" lon="19.04351103"/>
   <trkpt lat="50.23507938" lon="19.04351103"/>
   <trkpt lat="50.23520344" lon="19.04384989"/>
   <trkpt lat="50.23520344" lon="19.04384989"/>
   <trkpt lat="50.23539563" lon="19.04427959"/>
   <trkpt lat="50.23539563" lon="19.04427959"/>
   <trkpt lat="50.23561857" lon="19.04461345"/>
   <trkpt lat="50.23561857" lon="19.04461345"/>
   <trkpt lat="50.23584937" lon="19.04486713"/>
   <trkpt lat="50.23584937" lon="19.04486713"/>
   <trkpt lat="50.23611227" lon="19.04504171"/>
   <trkpt lat="50.23611227" lon="19.04504171"/>
   <trkpt lat="50.2362719" lon="19.0451213"/>
   <trkpt lat="50.2362719" lon="19.0451213"/>
   <trkpt lat="50.24103085" lon="19.04701552"/>
   <trkpt lat="50.24103085" lon="19.04701552"/>
   <trkpt lat="50.24136619" lon="19.04710887"/>
   <trkpt lat="50.24136619" lon="19.04710887"/>
   <trkpt lat="50.24165454" lon="19.0471327"/>
   <trkpt lat="50.24165454" lon="19.0471327"/>
   <trkpt lat="50.24515369" lon="19.04723077"/>
   <trkpt lat="50.24515369" lon="19.04723077"/>
   <trkpt lat="50.2467472" lon="19.0473368"/>
   <trkpt lat="50.2467472" lon="19.0473368"/>
   <trkpt lat="50.24708384" lon="19.04739491"/>
   <trkpt lat="50.24708384" lon="19.04739491"/>
   <trkpt lat="50.24739128" lon="19.04755594"/>
   <trkpt lat="50.24739128" lon="19.04755594"/>
   <trkpt lat="50.24862191" lon="19.04839493"/>
   <trkpt lat="50.24862191" lon="19.04839493"/>
   <trkpt lat="50.24899989" lon="19.04857999"/>
   <trkpt lat="50.24899989" lon="19.04857999"/>
   <trkpt lat="50.24929128" lon="19.04864712"/>
   <trkpt lat="50.24929128" lon="19.04864712"/>
   <trkpt lat="50.24946558" lon="19.04861515"/>
   <trkpt lat="50.24946558" lon="19.04861515"/>
   <trkpt lat="50.24971842" lon="19.04849064"/>
   <trkpt lat="50.24971842" lon="19.04849064"/>
   <trkpt lat="50.25027543" lon="19.0481386"/>
   <trkpt lat="50.25027543" lon="19.0481386"/>
   <trkpt lat="50.25034827" lon="19.04814231"/>
   <trkpt lat="50.25034827" lon="19.04814231"/>
   <trkpt lat="50.25040986" lon="19.04820622"/>
   <trkpt lat="50.25040986" lon="19.04820622"/>
   <trkpt lat="50.2504371" lon="19.0483118"/>
   <trkpt lat="50.2504371" lon="19.0483118"/>
   <trkpt lat="50.25036625" lon="19.04972593"/>
   <trkpt lat="50.25036625" lon="19.04972593"/>
   <trkpt lat="50.25033297" lon="19.04982654"/>
   <trkpt lat="50.25033297" lon="19.04982654"/>
   <trkpt lat="50.25024479" lon="19.04992368"/>
   <trkpt lat="50.25024479" lon="19.04992368"/>
   <trkpt lat="50.24873235" lon="19.05076893"/>
   <trkpt lat="50.24873235" lon="19.05076893"/>
   <trkpt lat="50.24850698" lon="19.0508251"/>
   <trkpt lat="50.24850698" lon="19.0508251"/>
   <trkpt lat="50.24832915" lon="19.05078569"/>
   <trkpt lat="50.24832915" lon="19.05078569"/>
   <trkpt lat="50.24783395" lon="19.05042989"/>
   <trkpt lat="50.24783395" lon="19.05042989"/>
   <trkpt lat="50.24765711" lon="19.05040274"/>
   <trkpt lat="50.24765711" lon="19.05040274"/>
   <trkpt lat="50.24743977" lon="19.05044986"/>
   <trkpt lat="50.24743977" lon="19.05044986"/>
   <trkpt lat="50.24643254" lon="19.05079494"/>
   <trkpt lat="50.24643254" lon="19.05079494"/>
   <trkpt lat="50.24507805" lon="19.05128933"/>
   <trkpt lat="50.24507805" lon="19.05128933"/>
   <trkpt lat="50.24482114" lon="19.05147404"/>
   <trkpt lat="50.24482114" lon="19.05147404"/>
   <trkpt lat="50.24462623" lon="19.05175209"/>
   <trkpt lat="50.24462623" lon="19.05175209"/>
   <trkpt lat="50.244526" lon="19.0520083"/>
   <trkpt lat="50.244526" lon="19.0520083"/>
   <trkpt lat="50.24443304" lon="19.05233223"/>
   <trkpt lat="50.24443304" lon="19.05233223"/>
   <trkpt lat="50.24440739" lon="19.05279742"/>
   <trkpt lat="50.24440739" lon="19.05279742"/>
   <trkpt lat="50.24542998" lon="19.05983196"/>
   <trkpt lat="50.24542998" lon="19.05983196"/>
   <trkpt lat="50.24551454" lon="19.06014901"/>
   <trkpt lat="50.24551454" lon="19.06014901"/>
   <trkpt lat="50.24560838" lon="19.06031517"/>
   <trkpt lat="50.24560838" lon="19.06031517"/>
   <trkpt lat="50.24586396" lon="19.06076323"/>
   <trkpt lat="50.24586396" lon="19.06076323"/>
   <trkpt lat="50.24598293" lon="19.06106228"/>
   <trkpt lat="50.24598293" lon="19.06106228"/>
   <trkpt lat="50.24602964" lon="19.06128966"/>
   <trkpt lat="50.24602964" lon="19.06128966"/>
   <trkpt lat="50.24602082" lon="19.06139577"/>
   <trkpt lat="50.24602082" lon="19.06139577"/>
   <trkpt lat="50.24596235" lon="19.0614797"/>
   <trkpt lat="50.24596235" lon="19.0614797"/>
   <trkpt lat="50.24538455" lon="19.06175588"/>
   <trkpt lat="50.24538455" lon="19.06175588"/>
   <trkpt lat="50.24288602" lon="19.06276539"/>
   <trkpt lat="50.24288602" lon="19.06276539"/>
   <trkpt lat="50.2392364" lon="19.0641591"/>
   <trkpt lat="50.2392364" lon="19.0641591"/>
   <trkpt lat="50.23915467" lon="19.0642477"/>
   <trkpt lat="50.23915467" lon="19.0642477"/>
   <trkpt lat="50.23913757" lon="19.06445088"/>
   <trkpt lat="50.23913757" lon="19.06445088"/>
   <trkpt lat="50.2392972" lon="19.06561631"/>
   <trkpt lat="50.2392972" lon="19.06561631"/>
   <trkpt lat="50.24009592" lon="19.07120387"/>
   <trkpt lat="50.24009592" lon="19.07120387"/>
   <trkpt lat="50.24071986" lon="19.07530116"/>
   <trkpt lat="50.24071986" lon="19.07530116"/>
   <trkpt lat="50.241242" lon="19.0788207"/>
   <trkpt lat="50.241242" lon="19.0788207"/>
   <trkpt lat="50.24144467" lon="19.07933268"/>
   <trkpt lat="50.24144467" lon="19.07933268"/>
   <trkpt lat="50.24295455" lon="19.08251232"/>
   <trkpt lat="50.24295455" lon="19.08251232"/>
   <trkpt lat="50.24297599" lon="19.08252338"/>
   <trkpt lat="50.24297599" lon="19.08252338"/>
   <trkpt lat="50.24349518" lon="19.08197041"/>
   <trkpt lat="50.24349518" lon="19.08197041"/>
   <trkpt lat="50.24353857" lon="19.08197889"/>
   <trkpt lat="50.24353857" lon="19.08197889"/>
   <trkpt lat="50.2441731" lon="19.08333696"/>
   <trkpt lat="50.2441731" lon="19.08333696"/>
   <trkpt lat="50.24419522" lon="19.08345581"/>
   <trkpt lat="50.24419522" lon="19.08345581"/>
   <trkpt lat="50.24417798" lon="19.08360448"/>
   <trkpt lat="50.24417798" lon="19.08360448"/>
   <trkpt lat="50.24366877" lon="19.08431306"/>
   <trkpt lat="50.24366877" lon="19.08431306"/>
   <trkpt lat="50.2436611" lon="19.08449091"/>
   <trkpt lat="50.2436611" lon="19.08449091"/>
   <trkpt lat="50.24371989" lon="19.08480864"/>
   <trkpt lat="50.24371989" lon="19.08480864"/>
   <trkpt lat="50.24407829" lon="19.08556351"/>
   <trkpt lat="50.24407829" lon="19.08556351"/>
   <trkpt lat="50.24409789" lon="19.08571302"/>
   <trkpt lat="50.24409789" lon="19.08571302"/>
   <trkpt lat="50.24403078" lon="19.0858976"/>
   <trkpt lat="50.24403078" lon="19.0858976"/>
   <trkpt lat="50.24165439" lon="19.08985277"/>
   <trkpt lat="50.24165439" lon="19.08985277"/>
   <trkpt lat="50.24165376" lon="19.08995065"/>
   <trkpt lat="50.24165376" lon="19.08995065"/>
   <trkpt lat="50.2420574" lon="19.0916506"/>
   <trkpt lat="50.2420574" lon="19.0916506"/>
   <trkpt lat="50.24229884" lon="19.09352843"/>
   <trkpt lat="50.24229884" lon="19.09352843"/>
   <trkpt lat="50.24261883" lon="19.0952388"/>
   <trkpt lat="50.24261883" lon="19.0952388"/>
   <trkpt lat="50.24275434" lon="19.09584891"/>
   <trkpt lat="50.24275434" lon="19.09584891"/>
   <trkpt lat="50.24304478" lon="19.09673748"/>
   <trkpt lat="50.24304478" lon="19.09673748"/>
   <trkpt lat="50.24329289" lon="19.09730224"/>
   <trkpt lat="50.24329289" lon="19.09730224"/>
   <trkpt lat="50.24341631" lon="19.09751506"/>
   <trkpt lat="50.24341631" lon="19.09751506"/>
   <trkpt lat="50.24352227" lon="19.09766414"/>
   <trkpt lat="50.24352227" lon="19.09766414"/>
   <trkpt lat="50.24372524" lon="19.09784385"/>
   <trkpt lat="50.24372524" lon="19.09784385"/>
   <trkpt lat="50.24379697" lon="19.09785405"/>
   <trkpt lat="50.24379697" lon="19.09785405"/>
   <trkpt lat="50.2443757" lon="19.09760423"/>
   <trkpt lat="50.2443757" lon="19.09760423"/>
   <trkpt lat="50.24445192" lon="19.09761695"/>
   <trkpt lat="50.24445192" lon="19.09761695"/>
   <trkpt lat="50.24448251" lon="19.09770136"/>
   <trkpt lat="50.24448251" lon="19.09770136"/>
   <trkpt lat="50.24446458" lon="19.09814109"/>
   <trkpt lat="50.24446458" lon="19.09814109"/>
   <trkpt lat="50.24442871" lon="19.09847885"/>
   <trkpt lat="50.24442871" lon="19.09847885"/>
   <trkpt lat="50.24434965" lon="19.09886377"/>
   <trkpt lat="50.24434965" lon="19.09886377"/>
   <trkpt lat="50.24410267" lon="19.09962469"/>
   <trkpt lat="50.24410267" lon="19.09962469"/>
   <trkpt lat="50.2439372" lon="19.09997265"/>
   <trkpt lat="50.2439372" lon="19.09997265"/>
   <trkpt lat="50.24378131" lon="19.10017856"/>
   <trkpt lat="50.24378131" lon="19.10017856"/>
   <trkpt lat="50.2436248" lon="19.10025885"/>
   <trkpt lat="50.2436248" lon="19.10025885"/>
   <trkpt lat="50.2416796" lon="19.10043674"/>
   <trkpt lat="50.2416796" lon="19.10043674"/>
   <trkpt lat="50.24117909" lon="19.10053727"/>
   <trkpt lat="50.24117909" lon="19.10053727"/>
   <trkpt lat="50.24076319" lon="19.1007073"/>
   <trkpt lat="50.24076319" lon="19.1007073"/>
   <trkpt lat="50.2404635" lon="19.1009116"/>
   <trkpt lat="50.2404635" lon="19.1009116"/>
   <trkpt lat="50.24013325" lon="19.10117169"/>
   <trkpt lat="50.24013325" lon="19.10117169"/>
   <trkpt lat="50.239805" lon="19.10151968"/>
   <trkpt lat="50.239805" lon="19.10151968"/>
   <trkpt lat="50.23948897" lon="19.10194447"/>
   <trkpt lat="50.23948897" lon="19.10194447"/>
   <trkpt lat="50.2392308" lon="19.102462"/>
   <trkpt lat="50.2392308" lon="19.102462"/>
   <trkpt lat="50.2371223" lon="19.1072798"/>
   <trkpt lat="50.2371223" lon="19.1072798"/>
   <trkpt lat="50.236585" lon="19.1082396"/>
   <trkpt lat="50.236585" lon="19.1082396"/>
   <trkpt lat="50.2359953" lon="19.1090436"/>
   <trkpt lat="50.2359953" lon="19.1090436"/>
   <trkpt lat="50.23351199" lon="19.11149542"/>
   <trkpt lat="50.23351199" lon="19.11149542"/>
   <trkpt lat="50.23286795" lon="19.11213985"/>
   <trkpt lat="50.23286795" lon="19.11213985"/>
   <trkpt lat="50.23259251" lon="19.11246275"/>
   <trkpt lat="50.23259251" lon="19.11246275"/>
   <trkpt lat="50.23234517" lon="19.11284522"/>
   <trkpt lat="50.23234517" lon="19.11284522"/>
   <trkpt lat="50.23197007" lon="19.11354671"/>
   <trkpt lat="50.23197007" lon="19.11354671"/>
   <trkpt lat="50.23168855" lon="19.11429148"/>
   <trkpt lat="50.23168855" lon="19.11429148"/>
   <trkpt lat="50.23170413" lon="19.11434756"/>
   <trkpt lat="50.23170413" lon="19.11434756"/>
   <trkpt lat="50.23174052" lon="19.11434565"/>
   <trkpt lat="50.23174052" lon="19.11434565"/>
   <trkpt lat="50.23220207" lon="19.11333081"/>
   <trkpt lat="50.23220207" lon="19.11333081"/>
   <trkpt lat="50.23245615" lon="19.11287266"/>
   <trkpt lat="50.23245615" lon="19.11287266"/>
   <trkpt lat="50.23286978" lon="19.11232207"/>
   <trkpt lat="50.23286978" lon="19.11232207"/>
   <trkpt lat="50.23608307" lon="19.10910957"/>
   <trkpt lat="50.23608307" lon="19.10910957"/>
   <trkpt lat="50.23633859" lon="19.10878232"/>
   <trkpt lat="50.23633859" lon="19.10878232"/>
   <trkpt lat="50.23676155" lon="19.10817521"/>
   <trkpt lat="50.23676155" lon="19.10817521"/>
   <trkpt lat="50.2371412" lon="19.10747783"/>
   <trkpt lat="50.2371412" lon="19.10747783"/>
   <trkpt lat="50.23749967" lon="19.10666462"/>
   <trkpt lat="50.23749967" lon="19.10666462"/>
   <trkpt lat="50.23954365" lon="19.10197479"/>
   <trkpt lat="50.23954365" lon="19.10197479"/>
   <trkpt lat="50.23989441" lon="19.10147376"/>
   <trkpt lat="50.23989441" lon="19.10147376"/>
   <trkpt lat="50.24020042" lon="19.10116908"/>
   <trkpt lat="50.24020042" lon="19.10116908"/>
   <trkpt lat="50.24047612" lon="19.10093436"/>
   <trkpt lat="50.24047612" lon="19.10093436"/>
   <trkpt lat="50.24094235" lon="19.10068384"/>
   <trkpt lat="50.24094235" lon="19.10068384"/>
   <trkpt lat="50.2413364" lon="19.10055069"/>
   <trkpt lat="50.2413364" lon="19.10055069"/>
   <trkpt lat="50.24164818" lon="19.10049878"/>
   <trkpt lat="50.24164818" lon="19.10049878"/>
   <trkpt lat="50.24207976" lon="19.10045964"/>
   <trkpt lat="50.24207976" lon="19.10045964"/>
   <trkpt lat="50.24293457" lon="19.10039288"/>
   <trkpt lat="50.24293457" lon="19.10039288"/>
   <trkpt lat="50.24336515" lon="19.10037442"/>
   <trkpt lat="50.24336515" lon="19.10037442"/>
   <trkpt lat="50.24376484" lon="19.10043691"/>
   <trkpt lat="50.24376484" lon="19.10043691"/>
   <trkpt lat="50.24388646" lon="19.10037431"/>
   <trkpt lat="50.24388646" lon="19.10037431"/>
   <trkpt lat="50.24428261" lon="19.09919264"/>
   <trkpt lat="50.24428261" lon="19.09919264"/>
   <trkpt lat="50.24443613" lon="19.09865715"/>
   <trkpt lat="50.24443613" lon="19.09865715"/>
   <trkpt lat="50.2445029" lon="19.0981656"/>
   <trkpt lat="50.2445029" lon="19.0981656"/>
   <trkpt lat="50.24452216" lon="19.09769971"/>
   <trkpt lat="50.24452216" lon="19.09769971"/>
   <trkpt lat="50.24448219" lon="19.09695968"/>
   <trkpt lat="50.24448219" lon="19.09695968"/>
   <trkpt lat="50.24422422" lon="19.09557336"/>
   <trkpt lat="50.24422422" lon="19.09557336"/>
   <trkpt lat="50.24422694" lon="19.09526798"/>
   <trkpt lat="50.24422694" lon="19.09526798"/>
   <trkpt lat="50.2443394" lon="19.0947677"/>
   <trkpt lat="50.2443394" lon="19.0947677"/>
   <trkpt lat="50.24467931" lon="19.09396973"/>
   <trkpt lat="50.24467931" lon="19.09396973"/>
   <trkpt lat="50.2450848" lon="19.093136"/>
   <trkpt lat="50.2450848" lon="19.093136"/>
   <trkpt lat="50.2465396" lon="19.09026248"/>
   <trkpt lat="50.2465396" lon="19.09026248"/>
   <trkpt lat="50.24687956" lon="19.08970852"/>
   <trkpt lat="50.24687956" lon="19.08970852"/>
   <trkpt lat="50.24700859" lon="19.08963608"/>
   <trkpt lat="50.24700859" lon="19.08963608"/>
   <trkpt lat="50.2470557" lon="19.0896433"/>
   <trkpt lat="50.2470557" lon="19.0896433"/>
   <trkpt lat="50.24889206" lon="19.09015231"/>
   <trkpt lat="50.24889206" lon="19.09015231"/>
   <trkpt lat="50.2499595" lon="19.0904915"/>
   <trkpt lat="50.2499595" lon="19.0904915"/>
   <trkpt lat="50.25031646" lon="19.0906398"/>
   <trkpt lat="50.25031646" lon="19.0906398"/>
   <trkpt lat="50.25071515" lon="19.09085777"/>
   <trkpt lat="50.25071515" lon="19.09085777"/>
   <trkpt lat="50.25501151" lon="19.09327299"/>
   <trkpt lat="50.25501151" lon="19.09327299"/>
   <trkpt lat="50.25933118" lon="19.0942912"/>
   <trkpt lat="50.25933118" lon="19.0942912"/>
   <trkpt lat="50.26022803" lon="19.0945213"/>
   <trkpt lat="50.26022803" lon="19.0945213"/>
   <trkpt lat="50.26153769" lon="19.09484789"/>
   <trkpt lat="50.26153769" lon="19.09484789"/>
   <trkpt lat="50.26195294" lon="19.09491421"/>
   <trkpt lat="50.26195294" lon="19.09491421"/>
   <trkpt lat="50.26235981" lon="19.09486279"/>
   <trkpt lat="50.26235981" lon="19.09486279"/>
   <trkpt lat="50.26254577" lon="19.09472809"/>
   <trkpt lat="50.26254577" lon="19.09472809"/>
   <trkpt lat="50.26271005" lon="19.09458749"/>
   <trkpt lat="50.26271005" lon="19.09458749"/>
   <trkpt lat="50.26274569" lon="19.09446385"/>
   <trkpt lat="50.26274569" lon="19.09446385"/>
   <trkpt lat="50.26405952" lon="19.086503"/>
   <trkpt lat="50.26405952" lon="19.086503"/>
   <trkpt lat="50.26429698" lon="19.08562936"/>
   <trkpt lat="50.26429698" lon="19.08562936"/>
   <trkpt lat="50.26442578" lon="19.08495021"/>
   <trkpt lat="50.26442578" lon="19.08495021"/>
   <trkpt lat="50.26449645" lon="19.08245497"/>
   <trkpt lat="50.26449645" lon="19.08245497"/>
   <trkpt lat="50.26441538" lon="19.08109928"/>
   <trkpt lat="50.26441538" lon="19.08109928"/>
   <trkpt lat="50.26453817" lon="19.07961435"/>
   <trkpt lat="50.26453817" lon="19.07961435"/>
   <trkpt lat="50.26452698" lon="19.07950065"/>
   <trkpt lat="50.26452698" lon="19.07950065"/>
   <trkpt lat="50.26382622" lon="19.07867708"/>
   <trkpt lat="50.26382622" lon="19.07867708"/>
   <trkpt lat="50.26343244" lon="19.07679673"/>
   <trkpt lat="50.26343244" lon="19.07679673"/>
   <trkpt lat="50.26300376" lon="19.07507131"/>
   <trkpt lat="50.26300376" lon="19.07507131"/>
   <trkpt lat="50.2618662" lon="19.0717973"/>
   <trkpt lat="50.2618662" lon="19.0717973"/>
   <trkpt lat="50.2617981" lon="19.0717213"/>
   <trkpt lat="50.2617981" lon="19.0717213"/>
   <trkpt lat="50.26030839" lon="19.07127017"/>
   <trkpt lat="50.26030839" lon="19.07127017"/>
   <trkpt lat="50.26007034" lon="19.07112981"/>
   <trkpt lat="50.26007034" lon="19.07112981"/>
   <trkpt lat="50.25997561" lon="19.07091535"/>
   <trkpt lat="50.25997561" lon="19.07091535"/>
   <trkpt lat="50.25994196" lon="19.07073794"/>
   <trkpt lat="50.25994196" lon="19.07073794"/>
   <trkpt lat="50.25992202" lon="19.07036558"/>
   <trkpt lat="50.25992202" lon="19.07036558"/>
   <trkpt lat="50.25971659" lon="19.06531994"/>
   <trkpt lat="50.25971659" lon="19.06531994"/>
   <trkpt lat="50.2596281" lon="19.06098023"/>
   <trkpt lat="50.2596281" lon="19.06098023"/>
   <trkpt lat="50.25935168" lon="19.05357598"/>
   <trkpt lat="50.25935168" lon="19.05357598"/>
   <trkpt lat="50.25942148" lon="19.05346876"/>
   <trkpt lat="50.25942148" lon="19.05346876"/>
   <trkpt lat="50.25948899" lon="19.05344228"/>
   <trkpt lat="50.25948899" lon="19.05344228"/>
   <trkpt lat="50.263346" lon="19.053101"/>
   <trkpt lat="50.263346" lon="19.053101"/>
   <trkpt lat="50.26433144" lon="19.05286879"/>
   <trkpt lat="50.26433144" lon="19.05286879"/>
   <trkpt lat="50.2645628" lon="19.05278178"/>
   <trkpt lat="50.2645628" lon="19.05278178"/>
   <trkpt lat="50.26510161" lon="19.05252055"/>
   <trkpt lat="50.26510161" lon="19.05252055"/>
   <trkpt lat="50.26901042" lon="19.050611"/>
   <trkpt lat="50.26901042" lon="19.050611"/>
   <trkpt lat="50.27145264" lon="19.0492393"/>
   <trkpt lat="50.27145264" lon="19.0492393"/>
   <trkpt lat="50.27247243" lon="19.04841669"/>
   <trkpt lat="50.27247243" lon="19.04841669"/>
   <trkpt lat="50.27258932" lon="19.04841979"/>
   <trkpt lat="50.27258932" lon="19.04841979"/>
   <trkpt lat="50.27271811" lon="19.04853759"/>
   <trkpt lat="50.27271811" lon="19.04853759"/>
   <trkpt lat="50.27294057" lon="19.04918067"/>
   <trkpt lat="50.27294057" lon="19.04918067"/>
   <trkpt lat="50.2738295" lon="19.05163153"/>
   <trkpt lat="50.2738295" lon="19.05163153"/>
   <trkpt lat="50.27386967" lon="19.05180568"/>
   <trkpt lat="50.27386967" lon="19.05180568"/>
   <trkpt lat="50.2739608" lon="19.05225248"/>
   <trkpt lat="50.2739608" lon="19.05225248"/>
   <trkpt lat="50.27383594" lon="19.05325688"/>
   <trkpt lat="50.27383594" lon="19.05325688"/>
   <trkpt lat="50.27382503" lon="19.0536083"/>
   <trkpt lat="50.27382503" lon="19.0536083"/>
   <trkpt lat="50.27412347" lon="19.05591849"/>
   <trkpt lat="50.27412347" lon="19.05591849"/>
   <trkpt lat="50.27477457" lon="19.05835067"/>
   <trkpt lat="50.27477457" lon="19.05835067"/>
   <trkpt lat="50.27532646" lon="19.06045903"/>
   <trkpt lat="50.27532646" lon="19.06045903"/>
   <trkpt lat="50.27572071" lon="19.06195632"/>
   <trkpt lat="50.27572071" lon="19.06195632"/>
   <trkpt lat="50.27615261" lon="19.0637016"/>
   <trkpt lat="50.27615261" lon="19.0637016"/>
   <trkpt lat="50.2765944" lon="19.06492919"/>
   <trkpt lat="50.2765944" lon="19.06492919"/>
   <trkpt lat="50.27674609" lon="19.06580618"/>
   <trkpt lat="50.27674609" lon="19.06580618"/>
   <trkpt lat="50.27680537" lon="19.06586126"/>
   <trkpt lat="50.27680537" lon="19.06586126"/>
   <trkpt lat="50.27740013" lon="19.06556121"/>
   <trkpt lat="50.27740013" lon="19.06556121"/>
   <trkpt lat="50.27764408" lon="19.06546645"/>
   <trkpt lat="50.27764408" lon="19.06546645"/>
   <trkpt lat="50.27798318" lon="19.06542043"/>
   <trkpt lat="50.27798318" lon="19.06542043"/>
   <trkpt lat="50.2783159" lon="19.0654655"/>
   <trkpt lat="50.2783159" lon="19.0654655"/>
   <trkpt lat="50.2787498" lon="19.0656398"/>
   <trkpt lat="50.2787498" lon="19.0656398"/>
   <trkpt lat="50.28034562" lon="19.06660508"/>
   <trkpt lat="50.28034562" lon="19.06660508"/>
   <trkpt lat="50.28042738" lon="19.06663579"/>
   <trkpt lat="50.28042738" lon="19.06663579"/>
   <trkpt lat="50.28050042" lon="19.06662384"/>
   <trkpt lat="50.28050042" lon="19.06662384"/>
   <trkpt lat="50.28222488" lon="19.06427109"/>
   <trkpt lat="50.28222488" lon="19.06427109"/>
   <trkpt lat="50.28273177" lon="19.06359535"/>
   <trkpt lat="50.28273177" lon="19.06359535"/>
   <trkpt lat="50.28535847" lon="19.06047322"/>
   <trkpt lat="50.28535847" lon="19.06047322"/>
   <trkpt lat="50.28563012" lon="19.06012426"/>
   <trkpt lat="50.28563012" lon="19.06012426"/>
   <trkpt lat="50.28597085" lon="19.05956888"/>
   <trkpt lat="50.28597085" lon="19.05956888"/>
   <trkpt lat="50.2877591" lon="19.05636367"/>
   <trkpt lat="50.2877591" lon="19.05636367"/>
   <trkpt lat="50.29033162" lon="19.05169663"/>
   <trkpt lat="50.29033162" lon="19.05169663"/>
   <trkpt lat="50.29072567" lon="19.0510123"/>
   <trkpt lat="50.29072567" lon="19.0510123"/>
   <trkpt lat="50.29125441" lon="19.05032996"/>
   <trkpt lat="50.29125441" lon="19.05032996"/>
   <trkpt lat="50.29193157" lon="19.04955354"/>
   <trkpt lat="50.29193157" lon="19.04955354"/>
   <trkpt lat="50.2935451" lon="19.0476727"/>
   <trkpt lat="50.2935451" lon="19.0476727"/>
   <trkpt lat="50.29371297" lon="19.04729388"/>
   <trkpt lat="50.29371297" lon="19.04729388"/>
   <trkpt lat="50.29404361" lon="19.04604103"/>
   <trkpt lat="50.29404361" lon="19.04604103"/>
   <trkpt lat="50.29416672" lon="19.04573952"/>
   <trkpt lat="50.29416672" lon="19.04573952"/>
   <trkpt lat="50.29432023" lon="19.04557403"/>
   <trkpt lat="50.29432023" lon="19.04557403"/>
   <trkpt lat="50.29448242" lon="19.04548442"/>
   <trkpt lat="50.29448242" lon="19.04548442"/>
   <trkpt lat="50.29507978" lon="19.04525395"/>
   <trkpt lat="50.29507978" lon="19.04525395"/>
   <trkpt lat="50.2952508" lon="19.0451687"/>
   <trkpt lat="50.2952508" lon="19.0451687"/>
   <trkpt lat="50.2979384" lon="19.0420869"/>
   <trkpt lat="50.2979384" lon="19.0420869"/>
   <trkpt lat="50.30173614" lon="19.0329131"/>
   <trkpt lat="50.30173614" lon="19.0329131"/>
   <trkpt lat="50.30177557" lon="19.03272934"/>
   <trkpt lat="50.30177557" lon="19.03272934"/>
   <trkpt lat="50.3017395" lon="19.0325012"/>
   <trkpt lat="50.3017395" lon="19.0325012"/>
   <trkpt lat="50.30035439" lon="19.03086401"/>
   <trkpt lat="50.30035439" lon="19.03086401"/>
   <trkpt lat="50.30024362" lon="19.03073138"/>
   <trkpt lat="50.30024362" lon="19.03073138"/>
   <trkpt lat="50.29965321" lon="19.03009896"/>
   <trkpt lat="50.29965321" lon="19.03009896"/>
   <trkpt lat="50.2987109" lon="19.02905923"/>
   <trkpt lat="50.2987109" lon="19.02905923"/>
   <trkpt lat="50.29868505" lon="19.02893495"/>
   <trkpt lat="50.29868505" lon="19.02893495"/>
   <trkpt lat="50.29902934" lon="19.02770334"/>
   <trkpt lat="50.29902934" lon="19.02770334"/>
   <trkpt lat="50.29908381" lon="19.02754871"/>
   <trkpt lat="50.29908381" lon="19.02754871"/>
   <trkpt lat="50.29907734" lon="19.02742008"/>
   <trkpt lat="50.29907734" lon="19.02742008"/>
   <trkpt lat="50.2990573" lon="19.0273468"/>
   <trkpt lat="50.2990573" lon="19.0273468"/>
   <trkpt lat="50.2981519" lon="19.0264469"/>
   <trkpt lat="50.2981519" lon="19.0264469"/>
   <trkpt lat="50.29739275" lon="19.02594637"/>
   <trkpt lat="50.29739275" lon="19.02594637"/>
   <trkpt lat="50.29502964" lon="19.02455228"/>
   <trkpt lat="50.29502964" lon="19.02455228"/>
   <trkpt lat="50.29337324" lon="19.02354409"/>
   <trkpt lat="50.29337324" lon="19.02354409"/>
   <trkpt lat="50.29307805" lon="19.02330956"/>
   <trkpt lat="50.29307805" lon="19.02330956"/>
   <trkpt lat="50.292864" lon="19.0230496"/>
   <trkpt lat="50.292864" lon="19.0230496"/>
   <trkpt lat="50.2926382" lon="19.0226887"/>
   <trkpt lat="50.2926382" lon="19.0226887"/>
   <trkpt lat="50.29170037" lon="19.02114388"/>
   <trkpt lat="50.29170037" lon="19.02114388"/>
   <trkpt lat="50.29155461" lon="19.0208158"/>
   <trkpt lat="50.29155461" lon="19.0208158"/>
   <trkpt lat="50.29143227" lon="19.02039359"/>
   <trkpt lat="50.29143227" lon="19.02039359"/>
   <trkpt lat="50.29136608" lon="19.01977653"/>
   <trkpt lat="50.29136608" lon="19.01977653"/>
   <trkpt lat="50.29140793" lon="19.0192387"/>
   <trkpt lat="50.29140793" lon="19.0192387"/>
   <trkpt lat="50.29154324" lon="19.01870544"/>
   <trkpt lat="50.29154324" lon="19.01870544"/>
   <trkpt lat="50.29170669" lon="19.01833907"/>
   <trkpt lat="50.29170669" lon="19.01833907"/>
   <trkpt lat="50.2922652" lon="19.017034"/>
   <trkpt lat="50.2922652" lon="19.017034"/>
   <trkpt lat="50.29330304" lon="19.01334511"/>
   <trkpt lat="50.29330304" lon="19.01334511"/>
   <trkpt lat="50.29528708" lon="19.00504981"/>
   <trkpt lat="50.29528708" lon="19.00504981"/>
   <trkpt lat="50.29535038" lon="19.00477989"/>
   <trkpt lat="50.29535038" lon="19.00477989"/>
   <trkpt lat="50.29516715" lon="19.0043471"/>
   <trkpt lat="50.29516715" lon="19.0043471"/>
   <trkpt lat="50.29227869" lon="18.99937037"/>
   <trkpt lat="50.29227869" lon="18.99937037"/>
   <trkpt lat="50.29228034" lon="18.99924905"/>
   <trkpt lat="50.29228034" lon="18.99924905"/>
   <trkpt lat="50.29254481" lon="18.99874551"/>
   <trkpt lat="50.29254481" lon="18.99874551"/>
   <trkpt lat="50.2926639" lon="18.99859784"/>
   <trkpt lat="50.2926639" lon="18.99859784"/>
   <trkpt lat="50.29278917" lon="18.99851069"/>
   <trkpt lat="50.29278917" lon="18.99851069"/>
   <trkpt lat="50.29293163" lon="18.99844699"/>
   <trkpt lat="50.29293163" lon="18.99844699"/>
   <trkpt lat="50.29403435" lon="18.99824712"/>
   <trkpt lat="50.29403435" lon="18.99824712"/>
   <trkpt lat="50.29496474" lon="18.99801472"/>
   <trkpt lat="50.29496474" lon="18.99801472"/>
   <trkpt lat="50.29505825" lon="18.99794141"/>
   <trkpt lat="50.29505825" lon="18.99794141"/>
   <trkpt lat="50.29509859" lon="18.99786814"/>
   <trkpt lat="50.29509859" lon="18.99786814"/>
   <trkpt lat="50.2951402" lon="18.99773989"/>
   <trkpt lat="50.2951402" lon="18.99773989"/>
   <trkpt lat="50.2951801" lon="18.99725237"/>
   <trkpt lat="50.2951801" lon="18.99725237"/>
   <trkpt lat="50.29520822" lon="18.99684203"/>
   <trkpt lat="50.29520822" lon="18.99684203"/>
   <trkpt lat="50.29521165" lon="18.99663489"/>
   <trkpt lat="50.29521165" lon="18.99663489"/>
   <trkpt lat="50.2948431" lon="18.99455674"/>
   <trkpt lat="50.2948431" lon="18.99455674"/>
   <trkpt lat="50.29486475" lon="18.99415814"/>
   <trkpt lat="50.29486475" lon="18.99415814"/>
   <trkpt lat="50.29501599" lon="18.9933364"/>
   <trkpt lat="50.29501599" lon="18.9933364"/>
   <trkpt lat="50.29517481" lon="18.99017711"/>
   <trkpt lat="50.29517481" lon="18.99017711"/>
   <trkpt lat="50.29521502" lon="18.98984787"/>
   <trkpt lat="50.29521502" lon="18.98984787"/>
   <trkpt lat="50.29531399" lon="18.98945327"/>
   <trkpt lat="50.29531399" lon="18.98945327"/>
   <trkpt lat="50.29540988" lon="18.98923539"/>
   <trkpt lat="50.29540988" lon="18.98923539"/>
   <trkpt lat="50.29556805" lon="18.98893434"/>
   <trkpt lat="50.29556805" lon="18.98893434"/>
   <trkpt lat="50.29692432" lon="18.98713564"/>
   <trkpt lat="50.29692432" lon="18.98713564"/>
   <trkpt lat="50.29709134" lon="18.98686692"/>
   <trkpt lat="50.29709134" lon="18.98686692"/>
   <trkpt lat="50.29721999" lon="18.98658206"/>
   <trkpt lat="50.29721999" lon="18.98658206"/>
   <trkpt lat="50.29729484" lon="18.98615278"/>
   <trkpt lat="50.29729484" lon="18.98615278"/>
   <trkpt lat="50.2973038" lon="18.9857545"/>
   <trkpt lat="50.2973038" lon="18.9857545"/>
   <trkpt lat="50.29691962" lon="18.9829441"/>
   <trkpt lat="50.29691962" lon="18.9829441"/>
   <trkpt lat="50.29687767" lon="18.98290049"/>
   <trkpt lat="50.29687767" lon="18.98290049"/>
   <trkpt lat="50.29680786" lon="18.98289477"/>
   <trkpt lat="50.29680786" lon="18.98289477"/>
   <trkpt lat="50.29618287" lon="18.98337783"/>
   <trkpt lat="50.29618287" lon="18.98337783"/>
   <trkpt lat="50.29583647" lon="18.98361235"/>
   <trkpt lat="50.29583647" lon="18.98361235"/>
   <trkpt lat="50.29557293" lon="18.98365955"/>
   <trkpt lat="50.29557293" lon="18.98365955"/>
   <trkpt lat="50.29534898" lon="18.98360092"/>
   <trkpt lat="50.29534898" lon="18.98360092"/>
   <trkpt lat="50.2910835" lon="18.9809399"/>
   <trkpt lat="50.2910835" lon="18.9809399"/>
   <trkpt lat="50.2909981" lon="18.9807689"/>
   <trkpt lat="50.2909981" lon="18.9807689"/>
   <trkpt lat="50.29052871" lon="18.97325766"/>
   <trkpt lat="50.29052871" lon="18.97325766"/>
   <trkpt lat="50.29033484" lon="18.97290044"/>
   <trkpt lat="50.29033484" lon="18.97290044"/>
   <trkpt lat="50.2902195" lon="18.97284475"/>
   <trkpt lat="50.2902195" lon="18.97284475"/>
   <trkpt lat="50.2901668" lon="18.97285715"/>
   <trkpt lat="50.2901668" lon="18.97285715"/>
   <trkpt lat="50.28901665" lon="18.97317256"/>
   <trkpt lat="50.28901665" lon="18.97317256"/>
   <trkpt lat="50.28881899" lon="18.97292684"/>
   <trkpt lat="50.28881899" lon="18.97292684"/>
   <trkpt lat="50.28868459" lon="18.97285362"/>
   <trkpt lat="50.28868459" lon="18.97285362"/>
   <trkpt lat="50.28855249" lon="18.97284893"/>
   <trkpt lat="50.28855249" lon="18.97284893"/>
   <trkpt lat="50.28771307" lon="18.97316983"/>
   <trkpt lat="50.28771307" lon="18.97316983"/>
   <trkpt lat="50.28760333" lon="18.97332693"/>
   <trkpt lat="50.28760333" lon="18.97332693"/>
   <trkpt lat="50.28754379" lon="18.97351997"/>
   <trkpt lat="50.28754379" lon="18.97351997"/>
   <trkpt lat="50.28754038" lon="18.97376095"/>
   <trkpt lat="50.28754038" lon="18.97376095"/>
   <trkpt lat="50.28761767" lon="18.97397865"/>
   <trkpt lat="50.28761767" lon="18.97397865"/>
   <trkpt lat="50.28771399" lon="18.97410286"/>
   <trkpt lat="50.28771399" lon="18.97410286"/>
   <trkpt lat="50.28785361" lon="18.97417633"/>
   <trkpt lat="50.28785361" lon="18.97417633"/>
   <trkpt lat="50.28832554" lon="18.97401634"/>
  </trkseg>
 </trk>
</gpx>
