<?xml version="1.0" ?>
<gpx xmlns="http://www.topografix.com/GPX/1/1">
 <trk>
  <name>Silesia Half Marathon 2026 - oficjalna trasa</name>
  <trkseg>
   <trkpt lat="50.28608273" lon="18.97661102"/>
   <trkpt lat="50.28567095" lon="18.98007322"/>
   <trkpt lat="50.28567095" lon="18.98007322"/>
   <trkpt lat="50.28458942" lon="18.98183871"/>
   <trkpt lat="50.28458942" lon="18.98183871"/>
   <trkpt lat="50.28424911" lon="18.98239256"/>
   <trkpt lat="50.28424911" lon="18.98239256"/>
   <trkpt lat="50.28330979" lon="18.98458129"/>
   <trkpt lat="50.28330979" lon="18.98458129"/>
   <trkpt lat="50.28298191" lon="18.98540062"/>
   <trkpt lat="50.28298191" lon="18.98540062"/>
   <trkpt lat="50.28228047" lon="18.98671617"/>
   <trkpt lat="50.28228047" lon="18.98671617"/>
   <trkpt lat="50.28185459" lon="18.98739996"/>
   <trkpt lat="50.28185459" lon="18.98739996"/>
   <trkpt lat="50.28038312" lon="18.98965651"/>
   <trkpt lat="50.28038312" lon="18.98965651"/>
   <trkpt lat="50.27793762" lon="18.99357871"/>
   <trkpt lat="50.27793762" lon="18.99357871"/>
   <trkpt lat="50.27796226" lon="18.99390456"/>
   <trkpt lat="50.27796226" lon="18.99390456"/>
   <trkpt lat="50.27802956" lon="18.99403816"/>
   <trkpt lat="50.27802956" lon="18.99403816"/>
   <trkpt lat="50.27820133" lon="18.99417805"/>
   <trkpt lat="50.27820133" lon="18.99417805"/>
   <trkpt lat="50.27580148" lon="18.99802554"/>
   <trkpt lat="50.27580148" lon="18.99802554"/>
   <trkpt lat="50.27581391" lon="18.99809131"/>
   <trkpt lat="50.27581391" lon="18.99809131"/>
   <trkpt lat="50.27875422" lon="19.00288555"/>
   <trkpt lat="50.27875422" lon="19.00288555"/>
   <trkpt lat="50.27877748" lon="19.00296367"/>
   <trkpt lat="50.27877748" lon="19.00296367"/>
   <trkpt lat="50.27877892" lon="19.00306324"/>
   <trkpt lat="50.27877892" lon="19.00306324"/>
   <trkpt lat="50.27797093" lon="19.00561599"/>
   <trkpt lat="50.27797093" lon="19.00561599"/>
   <trkpt lat="50.27792707" lon="19.00590686"/>
   <trkpt lat="50.27792707" lon="19.00590686"/>
   <trkpt lat="50.27794683" lon="19.00695628"/>
   <trkpt lat="50.27794683" lon="19.00695628"/>
   <trkpt lat="50.27800136" lon="19.00837743"/>
   <trkpt lat="50.27800136" lon="19.00837743"/>
   <trkpt lat="50.27797953" lon="19.00845715"/>
   <trkpt lat="50.27797953" lon="19.00845715"/>
   <trkpt lat="50.27793898" lon="19.00850921"/>
   <trkpt lat="50.27793898" lon="19.00850921"/>
   <trkpt lat="50.2737126" lon="19.00839099"/>
   <trkpt lat="50.2737126" lon="19.00839099"/>
   <trkpt lat="50.27354392" lon="19.00839189"/>
   <trkpt lat="50.27354392" lon="19.00839189"/>
   <trkpt lat="50.27324955" lon="19.00844778"/>
   <trkpt lat="50.27324955" lon="19.00844778"/>
   <trkpt lat="50.27120601" lon="19.00907094"/>
   <trkpt lat="50.27120601" lon="19.00907094"/>
   <trkpt lat="50.27050769" lon="19.00924774"/>
   <trkpt lat="50.27050769" lon="19.00924774"/>
   <trkpt lat="50.27032825" lon="19.00925835"/>
   <trkpt lat="50.27032825" lon="19.00925835"/>
   <trkpt lat="50.26986757" lon="19.00914022"/>
   <trkpt lat="50.26986757" lon="19.00914022"/>
   <trkpt lat="50.26967161" lon="19.00903741"/>
   <trkpt lat="50.26967161" lon="19.00903741"/>
   <trkpt lat="50.26837492" lon="19.00817286"/>
   <trkpt lat="50.26837492" lon="19.00817286"/>
   <trkpt lat="50.26834211" lon="19.0081755"/>
   <trkpt lat="50.26834211" lon="19.0081755"/>
   <trkpt lat="50.26830438" lon="19.00818481"/>
   <trkpt lat="50.26830438" lon="19.00818481"/>
   <trkpt lat="50.26827013" lon="19.00821415"/>
   <trkpt lat="50.26827013" lon="19.00821415"/>
   <trkpt lat="50.26825741" lon="19.00824333"/>
   <trkpt lat="50.26825741" lon="19.00824333"/>
   <trkpt lat="50.26736877" lon="19.01172951"/>
   <trkpt lat="50.26736877" lon="19.01172951"/>
   <trkpt lat="50.2648301" lon="19.02228266"/>
   <trkpt lat="50.2648301" lon="19.02228266"/>
   <trkpt lat="50.26480464" lon="19.022457"/>
   <trkpt lat="50.26480464" lon="19.022457"/>
   <trkpt lat="50.26479919" lon="19.02267694"/>
   <trkpt lat="50.26479919" lon="19.02267694"/>
   <trkpt lat="50.26485149" lon="19.0234591"/>
   <trkpt lat="50.26485149" lon="19.0234591"/>
   <trkpt lat="50.26484759" lon="19.02362694"/>
   <trkpt lat="50.26484759" lon="19.02362694"/>
   <trkpt lat="50.26482028" lon="19.02381003"/>
   <trkpt lat="50.26482028" lon="19.02381003"/>
   <trkpt lat="50.26474811" lon="19.02401753"/>
   <trkpt lat="50.26474811" lon="19.02401753"/>
   <trkpt lat="50.26431446" lon="19.02465624"/>
   <trkpt lat="50.26431446" lon="19.02465624"/>
   <trkpt lat="50.26300307" lon="19.03016189"/>
   <trkpt lat="50.26300307" lon="19.03016189"/>
   <trkpt lat="50.26286847" lon="19.03090341"/>
   <trkpt lat="50.26286847" lon="19.03090341"/>
   <trkpt lat="50.26279518" lon="19.0315775"/>
   <trkpt lat="50.26279518" lon="19.0315775"/>
   <trkpt lat="50.26260791" lon="19.03401263"/>
   <trkpt lat="50.26260791" lon="19.03401263"/>
   <trkpt lat="50.26244821" lon="19.03529137"/>
   <trkpt lat="50.26244821" lon="19.03529137"/>
   <trkpt lat="50.26144015" lon="19.03510094"/>
   <trkpt lat="50.26144015" lon="19.03510094"/>
   <trkpt lat="50.26125706" lon="19.03507411"/>
   <trkpt lat="50.26125706" lon="19.03507411"/>
   <trkpt lat="50.26109095" lon="19.03506473"/>
   <trkpt lat="50.26109095" lon="19.03506473"/>
   <trkpt lat="50.26089574" lon="19.03507948"/>
   <trkpt lat="50.26089574" lon="19.03507948"/>
   <trkpt lat="50.26069204" lon="19.03510362"/>
   <trkpt lat="50.26069204" lon="19.03510362"/>
   <trkpt lat="50.26048167" lon="19.03515727"/>
   <trkpt lat="50.26048167" lon="19.03515727"/>
   <trkpt lat="50.25875565" lon="19.03592169"/>
   <trkpt lat="50.25875565" lon="19.03592169"/>
   <trkpt lat="50.25861257" lon="19.0359579"/>
   <trkpt lat="50.25861257" lon="19.0359579"/>
   <trkpt lat="50.25785048" lon="19.03614566"/>
   <trkpt lat="50.25785048" lon="19.03614566"/>
   <trkpt lat="50.25777924" lon="19.03618522"/>
   <trkpt lat="50.25777924" lon="19.03618522"/>
   <trkpt lat="50.25772604" lon="19.03627541"/>
   <trkpt lat="50.25772604" lon="19.03627541"/>
   <trkpt lat="50.25769701" lon="19.03635671"/>
   <trkpt lat="50.25769701" lon="19.03635671"/>
   <trkpt lat="50.25770315" lon="19.03648362"/>
   <trkpt lat="50.25770315" lon="19.03648362"/>
   <trkpt lat="50.25777075" lon="19.03740403"/>
   <trkpt lat="50.25777075" lon="19.03740403"/>
   <trkpt lat="50.25809087" lon="19.04005384"/>
   <trkpt lat="50.25809087" lon="19.04005384"/>
   <trkpt lat="50.25869081" lon="19.04520209"/>
   <trkpt lat="50.25869081" lon="19.04520209"/>
   <trkpt lat="50.25870594" lon="19.04543683"/>
   <trkpt lat="50.25870594" lon="19.04543683"/>
   <trkpt lat="50.25869866" lon="19.04568896"/>
   <trkpt lat="50.25869866" lon="19.04568896"/>
   <trkpt lat="50.2586441" lon="19.0460296"/>
   <trkpt lat="50.2586441" lon="19.0460296"/>
   <trkpt lat="50.25835672" lon="19.04723391"/>
   <trkpt lat="50.25835672" lon="19.04723391"/>
   <trkpt lat="50.25829654" lon="19.04760882"/>
   <trkpt lat="50.25829654" lon="19.04760882"/>
   <trkpt lat="50.25828293" lon="19.04790827"/>
   <trkpt lat="50.25828293" lon="19.04790827"/>
   <trkpt lat="50.25829189" lon="19.04823143"/>
   <trkpt lat="50.25829189" lon="19.04823143"/>
   <trkpt lat="50.25833031" lon="19.04851606"/>
   <trkpt lat="50.25833031" lon="19.04851606"/>
   <trkpt lat="50.25839608" lon="19.04878486"/>
   <trkpt lat="50.25839608" lon="19.04878486"/>
   <trkpt lat="50.25849839" lon="19.04907954"/>
   <trkpt lat="50.25849839" lon="19.04907954"/>
   <trkpt lat="50.25893318" lon="19.0500509"/>
   <trkpt lat="50.25893318" lon="19.0500509"/>
   <trkpt lat="50.25907577" lon="19.05041024"/>
   <trkpt lat="50.25907577" lon="19.05041024"/>
   <trkpt lat="50.25915679" lon="19.05072299"/>
   <trkpt lat="50.25915679" lon="19.05072299"/>
   <trkpt lat="50.25921547" lon="19.05116316"/>
   <trkpt lat="50.25921547" lon="19.05116316"/>
   <trkpt lat="50.25934048" lon="19.05332389"/>
   <trkpt lat="50.25934048" lon="19.05332389"/>
   <trkpt lat="50.25945759" lon="19.05337099"/>
   <trkpt lat="50.25945759" lon="19.05337099"/>
   <trkpt lat="50.26028737" lon="19.05329772"/>
   <trkpt lat="50.26028737" lon="19.05329772"/>
   <trkpt lat="50.2610085" lon="19.05321658"/>
   <trkpt lat="50.2610085" lon="19.05321658"/>
   <trkpt lat="50.26379634" lon="19.05298054"/>
   <trkpt lat="50.26379634" lon="19.05298054"/>
   <trkpt lat="50.2640547" lon="19.05293897"/>
   <trkpt lat="50.2640547" lon="19.05293897"/>
   <trkpt lat="50.26422875" lon="19.05289739"/>
   <trkpt lat="50.26422875" lon="19.05289739"/>
   <trkpt lat="50.2645701" lon="19.05278072"/>
   <trkpt lat="50.2645701" lon="19.05278072"/>
   <trkpt lat="50.26600342" lon="19.05208173"/>
   <trkpt lat="50.26600342" lon="19.05208173"/>
   <trkpt lat="50.26744401" lon="19.0513532"/>
   <trkpt lat="50.26744401" lon="19.0513532"/>
   <trkpt lat="50.27032032" lon="19.04987454"/>
   <trkpt lat="50.27032032" lon="19.04987454"/>
   <trkpt lat="50.2715221" lon="19.0491946"/>
   <trkpt lat="50.2715221" lon="19.0491946"/>
   <trkpt lat="50.27248001" lon="19.04844761"/>
   <trkpt lat="50.27248001" lon="19.04844761"/>
   <trkpt lat="50.27252839" lon="19.0484342"/>
   <trkpt lat="50.27252839" lon="19.0484342"/>
   <trkpt lat="50.27258646" lon="19.04844359"/>
   <trkpt lat="50.27258646" lon="19.04844359"/>
   <trkpt lat="50.27264757" lon="19.04847376"/>
   <trkpt lat="50.27264757" lon="19.04847376"/>
   <trkpt lat="50.27268116" lon="19.04850159"/>
   <trkpt lat="50.27268116" lon="19.04850159"/>
   <trkpt lat="50.27271838" lon="19.04856026"/>
   <trkpt lat="50.27271838" lon="19.04856026"/>
   <trkpt lat="50.27368734" lon="19.05121295"/>
   <trkpt lat="50.27368734" lon="19.05121295"/>
   <trkpt lat="50.27387828" lon="19.05178556"/>
   <trkpt lat="50.27387828" lon="19.05178556"/>
   <trkpt lat="50.27396159" lon="19.05226133"/>
   <trkpt lat="50.27396159" lon="19.05226133"/>
   <trkpt lat="50.27392098" lon="19.05263933"/>
   <trkpt lat="50.27392098" lon="19.05263933"/>
   <trkpt lat="50.27382309" lon="19.05338744"/>
   <trkpt lat="50.27382309" lon="19.05338744"/>
   <trkpt lat="50.27382881" lon="19.05360684"/>
   <trkpt lat="50.27382881" lon="19.05360684"/>
   <trkpt lat="50.27395002" lon="19.05459926"/>
   <trkpt lat="50.27395002" lon="19.05459926"/>
   <trkpt lat="50.27405427" lon="19.05543879"/>
   <trkpt lat="50.27405427" lon="19.05543879"/>
   <trkpt lat="50.27413923" lon="19.05596077"/>
   <trkpt lat="50.27413923" lon="19.05596077"/>
   <trkpt lat="50.27435609" lon="19.05675709"/>
   <trkpt lat="50.27435609" lon="19.05675709"/>
   <trkpt lat="50.27455967" lon="19.05752739"/>
   <trkpt lat="50.27455967" lon="19.05752739"/>
   <trkpt lat="50.27602636" lon="19.06315782"/>
   <trkpt lat="50.27602636" lon="19.06315782"/>
   <trkpt lat="50.27615652" lon="19.06364988"/>
   <trkpt lat="50.27615652" lon="19.06364988"/>
   <trkpt lat="50.27658086" lon="19.06492755"/>
   <trkpt lat="50.27658086" lon="19.06492755"/>
   <trkpt lat="50.27675021" lon="19.06581718"/>
   <trkpt lat="50.27675021" lon="19.06581718"/>
   <trkpt lat="50.27677653" lon="19.06584207"/>
   <trkpt lat="50.27677653" lon="19.06584207"/>
   <trkpt lat="50.27677653" lon="19.06584207"/>
   <trkpt lat="50.27677653" lon="19.06584207"/>
   <trkpt lat="50.27679835" lon="19.06586084"/>
   <trkpt lat="50.27679835" lon="19.06586084"/>
   <trkpt lat="50.2768179" lon="19.06586185"/>
   <trkpt lat="50.2768179" lon="19.06586185"/>
   <trkpt lat="50.27735666" lon="19.06558625"/>
   <trkpt lat="50.27735666" lon="19.06558625"/>
   <trkpt lat="50.27744211" lon="19.06555206"/>
   <trkpt lat="50.27744211" lon="19.06555206"/>
   <trkpt lat="50.27778392" lon="19.06545818"/>
   <trkpt lat="50.27778392" lon="19.06545818"/>
   <trkpt lat="50.27794997" lon="19.0654394"/>
   <trkpt lat="50.27794997" lon="19.0654394"/>
   <trkpt lat="50.27810147" lon="19.06544611"/>
   <trkpt lat="50.27810147" lon="19.06544611"/>
   <trkpt lat="50.27837297" lon="19.06548232"/>
   <trkpt lat="50.27837297" lon="19.06548232"/>
   <trkpt lat="50.27859477" lon="19.06554937"/>
   <trkpt lat="50.27859477" lon="19.06554937"/>
   <trkpt lat="50.27878869" lon="19.06565263"/>
   <trkpt lat="50.27878869" lon="19.06565263"/>
   <trkpt lat="50.28020433" lon="19.06653283"/>
   <trkpt lat="50.28020433" lon="19.06653283"/>
   <trkpt lat="50.28040216" lon="19.06662733"/>
   <trkpt lat="50.28040216" lon="19.06662733"/>
   <trkpt lat="50.28049642" lon="19.06662226"/>
   <trkpt lat="50.28049642" lon="19.06662226"/>
   <trkpt lat="50.28053339" lon="19.06659103"/>
   <trkpt lat="50.28053339" lon="19.06659103"/>
   <trkpt lat="50.28271065" lon="19.06362639"/>
   <trkpt lat="50.28271065" lon="19.06362639"/>
   <trkpt lat="50.28549513" lon="19.06033464"/>
   <trkpt lat="50.28549513" lon="19.06033464"/>
   <trkpt lat="50.28572658" lon="19.06000831"/>
   <trkpt lat="50.28572658" lon="19.06000831"/>
   <trkpt lat="50.28594344" lon="19.05963629"/>
   <trkpt lat="50.28594344" lon="19.05963629"/>
   <trkpt lat="50.28973654" lon="19.05279262"/>
   <trkpt lat="50.28973654" lon="19.05279262"/>
   <trkpt lat="50.29049556" lon="19.05140347"/>
   <trkpt lat="50.29049556" lon="19.05140347"/>
   <trkpt lat="50.29084791" lon="19.05083239"/>
   <trkpt lat="50.29084791" lon="19.05083239"/>
   <trkpt lat="50.29149921" lon="19.05005029"/>
   <trkpt lat="50.29149921" lon="19.05005029"/>
   <trkpt lat="50.29345567" lon="19.04779315"/>
   <trkpt lat="50.29345567" lon="19.04779315"/>
   <trkpt lat="50.29357441" lon="19.04759198"/>
   <trkpt lat="50.29357441" lon="19.04759198"/>
   <trkpt lat="50.29369015" lon="19.04731867"/>
   <trkpt lat="50.29369015" lon="19.04731867"/>
   <trkpt lat="50.29376719" lon="19.04705799"/>
   <trkpt lat="50.29376719" lon="19.04705799"/>
   <trkpt lat="50.29402959" lon="19.04609079"/>
   <trkpt lat="50.29402959" lon="19.04609079"/>
   <trkpt lat="50.29410851" lon="19.04586808"/>
   <trkpt lat="50.29410851" lon="19.04586808"/>
   <trkpt lat="50.29423856" lon="19.04564363"/>
   <trkpt lat="50.29423856" lon="19.04564363"/>
   <trkpt lat="50.29441287" lon="19.04551327"/>
   <trkpt lat="50.29441287" lon="19.04551327"/>
   <trkpt lat="50.29499566" lon="19.04527053"/>
   <trkpt lat="50.29499566" lon="19.04527053"/>
   <trkpt lat="50.29508169" lon="19.04523432"/>
   <trkpt lat="50.29508169" lon="19.04523432"/>
   <trkpt lat="50.2952077" lon="19.04516324"/>
   <trkpt lat="50.2952077" lon="19.04516324"/>
   <trkpt lat="50.29530463" lon="19.04507875"/>
   <trkpt lat="50.29530463" lon="19.04507875"/>
   <trkpt lat="50.29785621" lon="19.0421766"/>
   <trkpt lat="50.29785621" lon="19.0421766"/>
   <trkpt lat="50.29800644" lon="19.04196203"/>
   <trkpt lat="50.29800644" lon="19.04196203"/>
   <trkpt lat="50.30103041" lon="19.03465587"/>
   <trkpt lat="50.30103041" lon="19.03465587"/>
   <trkpt lat="50.30143744" lon="19.0336741"/>
   <trkpt lat="50.30143744" lon="19.0336741"/>
   <trkpt lat="50.30173743" lon="19.0329151"/>
   <trkpt lat="50.30173743" lon="19.0329151"/>
   <trkpt lat="50.30178704" lon="19.0327054"/>
   <trkpt lat="50.30178704" lon="19.0327054"/>
   <trkpt lat="50.30175562" lon="19.03254748"/>
   <trkpt lat="50.30175562" lon="19.03254748"/>
   <trkpt lat="50.30171097" lon="19.03244134"/>
   <trkpt lat="50.30171097" lon="19.03244134"/>
   <trkpt lat="50.30023154" lon="19.03071353"/>
   <trkpt lat="50.30023154" lon="19.03071353"/>
   <trkpt lat="50.29923498" lon="19.02956975"/>
   <trkpt lat="50.29923498" lon="19.02956975"/>
   <trkpt lat="50.29921619" lon="19.02947412"/>
   <trkpt lat="50.29921619" lon="19.02947412"/>
   <trkpt lat="50.29957331" lon="19.0287201"/>
   <trkpt lat="50.29957331" lon="19.0287201"/>
   <trkpt lat="50.29955452" lon="19.02861343"/>
   <trkpt lat="50.29955452" lon="19.02861343"/>
   <trkpt lat="50.29910106" lon="19.02802493"/>
   <trkpt lat="50.29910106" lon="19.02802493"/>
   <trkpt lat="50.29906347" lon="19.02792194"/>
   <trkpt lat="50.29906347" lon="19.02792194"/>
   <trkpt lat="50.29907992" lon="19.02754167"/>
   <trkpt lat="50.29907992" lon="19.02754167"/>
   <trkpt lat="50.29906471" lon="19.02742177"/>
   <trkpt lat="50.29906471" lon="19.02742177"/>
   <trkpt lat="50.29905381" lon="19.0273755"/>
   <trkpt lat="50.29905381" lon="19.0273755"/>
   <trkpt lat="50.29900232" lon="19.02729973"/>
   <trkpt lat="50.29900232" lon="19.02729973"/>
   <trkpt lat="50.29849498" lon="19.0267867"/>
   <trkpt lat="50.29849498" lon="19.0267867"/>
   <trkpt lat="50.29797504" lon="19.02630708"/>
   <trkpt lat="50.29797504" lon="19.02630708"/>
   <trkpt lat="50.29345203" lon="19.02361572"/>
   <trkpt lat="50.29345203" lon="19.02361572"/>
   <trkpt lat="50.29325211" lon="19.02347624"/>
   <trkpt lat="50.29325211" lon="19.02347624"/>
   <trkpt lat="50.29317214" lon="19.02341455"/>
   <trkpt lat="50.29317214" lon="19.02341455"/>
   <trkpt lat="50.29305219" lon="19.0233019"/>
   <trkpt lat="50.29305219" lon="19.0233019"/>
   <trkpt lat="50.29288861" lon="19.0231061"/>
   <trkpt lat="50.29288861" lon="19.0231061"/>
   <trkpt lat="50.2926802" lon="19.02279092"/>
   <trkpt lat="50.2926802" lon="19.02279092"/>
   <trkpt lat="50.29214585" lon="19.02188501"/>
   <trkpt lat="50.29214585" lon="19.02188501"/>
   <trkpt lat="50.29180839" lon="19.02129124"/>
   <trkpt lat="50.29180839" lon="19.02129124"/>
   <trkpt lat="50.29160908" lon="19.02093028"/>
   <trkpt lat="50.29160908" lon="19.02093028"/>
   <trkpt lat="50.29146971" lon="19.02054852"/>
   <trkpt lat="50.29146971" lon="19.02054852"/>
   <trkpt lat="50.29139248" lon="19.02017855"/>
   <trkpt lat="50.29139248" lon="19.02017855"/>
   <trkpt lat="50.29137083" lon="19.01969213"/>
   <trkpt lat="50.29137083" lon="19.01969213"/>
   <trkpt lat="50.291421" lon="19.01916394"/>
   <trkpt lat="50.291421" lon="19.01916394"/>
   <trkpt lat="50.29154639" lon="19.01869833"/>
   <trkpt lat="50.29154639" lon="19.01869833"/>
   <trkpt lat="50.29222304" lon="19.01713855"/>
   <trkpt lat="50.29222304" lon="19.01713855"/>
   <trkpt lat="50.29330902" lon="19.01334147"/>
   <trkpt lat="50.29330902" lon="19.01334147"/>
   <trkpt lat="50.29532396" lon="19.00489403"/>
   <trkpt lat="50.29532396" lon="19.00489403"/>
   <trkpt lat="50.29533007" lon="19.00475174"/>
   <trkpt lat="50.29533007" lon="19.00475174"/>
   <trkpt lat="50.29515539" lon="19.00435384"/>
   <trkpt lat="50.29515539" lon="19.00435384"/>
   <trkpt lat="50.29229045" lon="18.99939286"/>
   <trkpt lat="50.29229045" lon="18.99939286"/>
   <trkpt lat="50.29227681" lon="18.99931559"/>
   <trkpt lat="50.29227681" lon="18.99931559"/>
   <trkpt lat="50.29229374" lon="18.999242"/>
   <trkpt lat="50.29229374" lon="18.999242"/>
   <trkpt lat="50.29236109" lon="18.99911835"/>
   <trkpt lat="50.29236109" lon="18.99911835"/>
   <trkpt lat="50.29258448" lon="18.99871677"/>
   <trkpt lat="50.29258448" lon="18.99871677"/>
   <trkpt lat="50.29268477" lon="18.99858304"/>
   <trkpt lat="50.29268477" lon="18.99858304"/>
   <trkpt lat="50.2929016" lon="18.99844661"/>
   <trkpt lat="50.2929016" lon="18.99844661"/>
   <trkpt lat="50.2948819" lon="18.99803886"/>
   <trkpt lat="50.2948819" lon="18.99803886"/>
   <trkpt lat="50.29503196" lon="18.99797622"/>
   <trkpt lat="50.29503196" lon="18.99797622"/>
   <trkpt lat="50.29508309" lon="18.9978927"/>
   <trkpt lat="50.29508309" lon="18.9978927"/>
   <trkpt lat="50.29513088" lon="18.99777961"/>
   <trkpt lat="50.29513088" lon="18.99777961"/>
   <trkpt lat="50.29515422" lon="18.99762128"/>
   <trkpt lat="50.29515422" lon="18.99762128"/>
   <trkpt lat="50.29521017" lon="18.99668608"/>
   <trkpt lat="50.29521017" lon="18.99668608"/>
   <trkpt lat="50.29517889" lon="18.99643667"/>
   <trkpt lat="50.29517889" lon="18.99643667"/>
   <trkpt lat="50.2948584" lon="18.99467162"/>
   <trkpt lat="50.2948584" lon="18.99467162"/>
   <trkpt lat="50.29484569" lon="18.99450637"/>
   <trkpt lat="50.29484569" lon="18.99450637"/>
   <trkpt lat="50.29486381" lon="18.99429498"/>
   <trkpt lat="50.29486381" lon="18.99429498"/>
   <trkpt lat="50.29500115" lon="18.99343199"/>
   <trkpt lat="50.29500115" lon="18.99343199"/>
   <trkpt lat="50.29502261" lon="18.99310135"/>
   <trkpt lat="50.29502261" lon="18.99310135"/>
   <trkpt lat="50.29519442" lon="18.98998248"/>
   <trkpt lat="50.29519442" lon="18.98998248"/>
   <trkpt lat="50.29524307" lon="18.98972771"/>
   <trkpt lat="50.29524307" lon="18.98972771"/>
   <trkpt lat="50.29536695" lon="18.98934796"/>
   <trkpt lat="50.29536695" lon="18.98934796"/>
   <trkpt lat="50.29552656" lon="18.98898114"/>
   <trkpt lat="50.29552656" lon="18.98898114"/>
   <trkpt lat="50.29701176" lon="18.98699552"/>
   <trkpt lat="50.29701176" lon="18.98699552"/>
   <trkpt lat="50.2971426" lon="18.98675546"/>
   <trkpt lat="50.2971426" lon="18.98675546"/>
   <trkpt lat="50.29720803" lon="18.98655161"/>
   <trkpt lat="50.29720803" lon="18.98655161"/>
   <trkpt lat="50.29726979" lon="18.98630626"/>
   <trkpt lat="50.29726979" lon="18.98630626"/>
   <trkpt lat="50.29729768" lon="18.98608223"/>
   <trkpt lat="50.29729768" lon="18.98608223"/>
   <trkpt lat="50.29729065" lon="18.98571845"/>
   <trkpt lat="50.29729065" lon="18.98571845"/>
   <trkpt lat="50.29692766" lon="18.9830521"/>
   <trkpt lat="50.29692766" lon="18.9830521"/>
   <trkpt lat="50.29690271" lon="18.98294672"/>
   <trkpt lat="50.29690271" lon="18.98294672"/>
   <trkpt lat="50.29688213" lon="18.98290803"/>
   <trkpt lat="50.29688213" lon="18.98290803"/>
   <trkpt lat="50.29684286" lon="18.98289708"/>
   <trkpt lat="50.29684286" lon="18.98289708"/>
   <trkpt lat="50.29680489" lon="18.98290254"/>
   <trkpt lat="50.29680489" lon="18.98290254"/>
   <trkpt lat="50.29596298" lon="18.98353917"/>
   <trkpt lat="50.29596298" lon="18.98353917"/>
   <trkpt lat="50.29582847" lon="18.98362256"/>
   <trkpt lat="50.29582847" lon="18.98362256"/>
   <trkpt lat="50.29568941" lon="18.98365521"/>
   <trkpt lat="50.29568941" lon="18.98365521"/>
   <trkpt lat="50.29554863" lon="18.98365248"/>
   <trkpt lat="50.29554863" lon="18.98365248"/>
   <trkpt lat="50.29537249" lon="18.98362164"/>
   <trkpt lat="50.29537249" lon="18.98362164"/>
   <trkpt lat="50.29109352" lon="18.98094371"/>
   <trkpt lat="50.29109352" lon="18.98094371"/>
   <trkpt lat="50.29099638" lon="18.98076647"/>
   <trkpt lat="50.29099638" lon="18.98076647"/>
   <trkpt lat="50.29053589" lon="18.97328994"/>
   <trkpt lat="50.29053589" lon="18.97328994"/>
   <trkpt lat="50.2903463" lon="18.97291298"/>
   <trkpt lat="50.2903463" lon="18.97291298"/>
   <trkpt lat="50.29021598" lon="18.97284439"/>
   <trkpt lat="50.29021598" lon="18.97284439"/>
   <trkpt lat="50.28902716" lon="18.97318501"/>
   <trkpt lat="50.28902716" lon="18.97318501"/>
   <trkpt lat="50.28895536" lon="18.97314996"/>
   <trkpt lat="50.28895536" lon="18.97314996"/>
   <trkpt lat="50.28886872" lon="18.97302142"/>
   <trkpt lat="50.28886872" lon="18.97302142"/>
   <trkpt lat="50.28879353" lon="18.97293216"/>
   <trkpt lat="50.28879353" lon="18.97293216"/>
   <trkpt lat="50.28869168" lon="18.97286098"/>
   <trkpt lat="50.28869168" lon="18.97286098"/>
   <trkpt lat="50.28858087" lon="18.97284494"/>
   <trkpt lat="50.28858087" lon="18.97284494"/>
   <trkpt lat="50.28779083" lon="18.97313386"/>
   <trkpt lat="50.28779083" lon="18.97313386"/>
   <trkpt lat="50.28773751" lon="18.97316605"/>
   <trkpt lat="50.28773751" lon="18.97316605"/>
   <trkpt lat="50.28767692" lon="18.97321165"/>
   <trkpt lat="50.28767692" lon="18.97321165"/>
   <trkpt lat="50.28764056" lon="18.97325858"/>
   <trkpt lat="50.28764056" lon="18.97325858"/>
   <trkpt lat="50.28759936" lon="18.97332966"/>
   <trkpt lat="50.28759936" lon="18.97332966"/>
   <trkpt lat="50.28757513" lon="18.97339806"/>
   <trkpt lat="50.28757513" lon="18.97339806"/>
   <trkpt lat="50.28755574" lon="18.97347584"/>
   <trkpt lat="50.28755574" lon="18.97347584"/>
   <trkpt lat="50.28753998" lon="18.97354558"/>
   <trkpt lat="50.28753998" lon="18.97354558"/>
   <trkpt lat="50.28753392" lon="18.9736408"/>
   <trkpt lat="50.28753392" lon="18.9736408"/>
   <trkpt lat="50.28754725" lon="18.97374675"/>
   <trkpt lat="50.28754725" lon="18.97374675"/>
   <trkpt lat="50.28757028" lon="18.97387415"/>
   <trkpt lat="50.28757028" lon="18.97387415"/>
   <trkpt lat="50.28760057" lon="18.97393852"/>
   <trkpt lat="50.28760057" lon="18.97393852"/>
   <trkpt lat="50.28762845" lon="18.97399351"/>
   <trkpt lat="50.28762845" lon="18.97399351"/>
   <trkpt lat="50.28766116" lon="18.97403911"/>
   <trkpt lat="50.28766116" lon="18.97403911"/>
   <trkpt lat="50.28770964" lon="18.97408873"/>
   <trkpt lat="50.28770964" lon="18.97408873"/>
   <trkpt lat="50.28776053" lon="18.9741236"/>
   <trkpt lat="50.28776053" lon="18.9741236"/>
   <trkpt lat="50.28779083" lon="18.97413835"/>
   <trkpt lat="50.28779083" lon="18.97413835"/>
   <trkpt lat="50.28782233" lon="18.97415042"/>
   <trkpt lat="50.28782233" lon="18.97415042"/>
   <trkpt lat="50.28791564" lon="18.9741531"/>
   <trkpt lat="50.28791564" lon="18.9741531"/>
   <trkpt lat="50.28831974" lon="18.97401155"/>
  </trkseg>
 </trk>
</gpx>
